{
"type": "FeatureCollection",
"name": "tuhup_watershed",
"crs": { "type": "name", "properties": { "name": "urn:ogc:def:crs:OGC:1.3:CRS84" } },
"features": [
{ "type": "Feature", "properties": { "gid": 0 }, "geometry": { "type": "MultiPolygon", "coordinates": [ [ [ [ 113.657083333333333, -0.365416666666658 ], [ 113.65125, -0.364583333333325 ], [ 113.64791666666666, -0.36125 ], [ 113.645416666666662, -0.360416666666659 ], [ 113.645416666666662, -0.36125 ], [ 113.64125, -0.35875 ], [ 113.639583333333334, -0.35541666666666 ], [ 113.63625, -0.354583333333323 ], [ 113.632916666666659, -0.35125 ], [ 113.63125, -0.347916666666659 ], [ 113.63125, -0.347083333333323 ], [ 113.62625, -0.347916666666659 ], [ 113.622916666666669, -0.347083333333323 ], [ 113.622083333333336, -0.34875 ], [ 113.617083333333326, -0.34875 ], [ 113.615416666666661, -0.34875 ], [ 113.612083333333331, -0.352083333333326 ], [ 113.610416666666666, -0.35541666666666 ], [ 113.60625, -0.35625 ], [ 113.60375, -0.35875 ], [ 113.60125, -0.35875 ], [ 113.59875, -0.36125 ], [ 113.597916666666663, -0.36375 ], [ 113.595416666666665, -0.36375 ], [ 113.592916666666667, -0.36625 ], [ 113.587916666666672, -0.369583333333324 ], [ 113.58208333333333, -0.372083333333325 ], [ 113.580416666666665, -0.375416666666659 ], [ 113.579583333333332, -0.379583333333326 ], [ 113.57625, -0.382916666666659 ], [ 113.577083333333334, -0.38625 ], [ 113.575416666666669, -0.38625 ], [ 113.565416666666664, -0.384583333333325 ], [ 113.557083333333338, -0.379583333333326 ], [ 113.557083333333338, -0.380416666666658 ], [ 113.550416666666663, -0.38125 ], [ 113.545416666666668, -0.377916666666657 ], [ 113.539583333333326, -0.375416666666659 ], [ 113.537916666666661, -0.377083333333324 ], [ 113.532916666666665, -0.377083333333324 ], [ 113.530416666666667, -0.37875 ], [ 113.522083333333327, -0.37875 ], [ 113.520416666666662, -0.380416666666658 ], [ 113.515416666666667, -0.380416666666658 ], [ 113.515416666666667, -0.38125 ], [ 113.505416666666662, -0.38125 ], [ 113.504583333333329, -0.379583333333326 ], [ 113.50125, -0.37875 ], [ 113.49875, -0.382083333333323 ], [ 113.495416666666671, -0.38375 ], [ 113.49125, -0.38375 ], [ 113.487083333333331, -0.379583333333326 ], [ 113.482916666666668, -0.380416666666658 ], [ 113.482083333333335, -0.377916666666657 ], [ 113.47875, -0.377916666666657 ], [ 113.477083333333326, -0.379583333333326 ], [ 113.470416666666665, -0.37875 ], [ 113.470416666666665, -0.37625 ], [ 113.467083333333335, -0.37125 ], [ 113.46541666666667, -0.370416666666657 ], [ 113.46541666666667, -0.362916666666656 ], [ 113.467083333333335, -0.36125 ], [ 113.470416666666665, -0.362083333333324 ], [ 113.47125, -0.36375 ], [ 113.479583333333323, -0.36375 ], [ 113.479583333333323, -0.359583333333326 ], [ 113.48125, -0.35541666666666 ], [ 113.482916666666668, -0.354583333333323 ], [ 113.484583333333333, -0.349583333333324 ], [ 113.484583333333333, -0.345416666666658 ], [ 113.48625, -0.340416666666659 ], [ 113.487083333333331, -0.335416666666656 ], [ 113.485416666666666, -0.332083333333326 ], [ 113.487083333333331, -0.33125 ], [ 113.487083333333331, -0.32791666666666 ], [ 113.490416666666661, -0.322916666666657 ], [ 113.487916666666663, -0.322916666666657 ], [ 113.484583333333333, -0.32375 ], [ 113.48125, -0.322916666666657 ], [ 113.47875, -0.31875 ], [ 113.475416666666661, -0.317916666666658 ], [ 113.470416666666665, -0.312916666666659 ], [ 113.467083333333335, -0.312083333333323 ], [ 113.462083333333325, -0.312083333333323 ], [ 113.457916666666662, -0.31125 ], [ 113.455416666666665, -0.309583333333325 ], [ 113.45375, -0.305416666666659 ], [ 113.45375, -0.30125 ], [ 113.452083333333334, -0.300416666666656 ], [ 113.452083333333334, -0.299583333333324 ], [ 113.452083333333334, -0.29875 ], [ 113.449583333333337, -0.297083333333326 ], [ 113.449583333333337, -0.294583333333325 ], [ 113.444583333333327, -0.29125 ], [ 113.43875, -0.29125 ], [ 113.437916666666666, -0.295416666666657 ], [ 113.432083333333338, -0.29625 ], [ 113.429583333333326, -0.300416666666656 ], [ 113.429583333333326, -0.30375 ], [ 113.422916666666666, -0.30375 ], [ 113.41875, -0.300416666666656 ], [ 113.41375, -0.302083333333325 ], [ 113.41375, -0.302916666666658 ], [ 113.41375, -0.30875 ], [ 113.41625, -0.310416666666658 ], [ 113.41625, -0.317083333333326 ], [ 113.407916666666665, -0.325416666666658 ], [ 113.407083333333333, -0.327083333333324 ], [ 113.407083333333333, -0.332916666666659 ], [ 113.404583333333335, -0.335416666666656 ], [ 113.404583333333335, -0.34125 ], [ 113.40375, -0.344583333333325 ], [ 113.40625, -0.347083333333323 ], [ 113.405416666666667, -0.352083333333326 ], [ 113.395416666666662, -0.360416666666659 ], [ 113.390416666666667, -0.362083333333324 ], [ 113.387916666666669, -0.367083333333326 ], [ 113.387083333333337, -0.367083333333326 ], [ 113.382916666666659, -0.370416666666657 ], [ 113.37875, -0.37125 ], [ 113.37625, -0.37375 ], [ 113.372916666666669, -0.37875 ], [ 113.37125, -0.377916666666657 ], [ 113.359583333333333, -0.377916666666657 ], [ 113.352083333333326, -0.38375 ], [ 113.350416666666661, -0.387083333333326 ], [ 113.347916666666663, -0.38875 ], [ 113.342083333333335, -0.389583333333324 ], [ 113.34041666666667, -0.392083333333325 ], [ 113.337083333333325, -0.392916666666657 ], [ 113.33375, -0.39625 ], [ 113.32875, -0.39625 ], [ 113.327083333333334, -0.397916666666656 ], [ 113.320416666666659, -0.397916666666656 ], [ 113.319583333333327, -0.397916666666656 ], [ 113.31375, -0.397916666666656 ], [ 113.31125, -0.397083333333324 ], [ 113.309583333333336, -0.394583333333326 ], [ 113.30625, -0.395416666666659 ], [ 113.300416666666663, -0.395416666666659 ], [ 113.297083333333333, -0.394583333333326 ], [ 113.295416666666668, -0.392083333333325 ], [ 113.282083333333333, -0.392083333333325 ], [ 113.27875, -0.39041666666666 ], [ 113.27625, -0.387916666666658 ], [ 113.265416666666667, -0.387916666666658 ], [ 113.26375, -0.38625 ], [ 113.259583333333325, -0.38625 ], [ 113.252916666666664, -0.38375 ], [ 113.252916666666664, -0.382916666666659 ], [ 113.244583333333338, -0.379583333333326 ], [ 113.240416666666661, -0.37875 ], [ 113.237916666666663, -0.37625 ], [ 113.237916666666663, -0.372083333333325 ], [ 113.23625, -0.367916666666659 ], [ 113.23375, -0.367083333333326 ], [ 113.23375, -0.364583333333325 ], [ 113.22875, -0.35875 ], [ 113.22875, -0.35625 ], [ 113.227083333333326, -0.352916666666658 ], [ 113.22125, -0.347916666666659 ], [ 113.22125, -0.34125 ], [ 113.220416666666665, -0.33375 ], [ 113.224583333333328, -0.33125 ], [ 113.229583333333323, -0.325416666666658 ], [ 113.232083333333335, -0.32375 ], [ 113.232083333333335, -0.32125 ], [ 113.235416666666666, -0.319583333333323 ], [ 113.239583333333329, -0.315416666666657 ], [ 113.239583333333329, -0.31125 ], [ 113.242083333333326, -0.30875 ], [ 113.245416666666671, -0.307916666666657 ], [ 113.245416666666671, -0.30625 ], [ 113.247083333333336, -0.30625 ], [ 113.25125, -0.305416666666659 ], [ 113.25375, -0.302916666666658 ], [ 113.25375, -0.30125 ], [ 113.25375, -0.297916666666659 ], [ 113.255416666666662, -0.29625 ], [ 113.260416666666657, -0.29625 ], [ 113.26125, -0.290416666666658 ], [ 113.260416666666657, -0.287083333333324 ], [ 113.265416666666667, -0.28125 ], [ 113.26625, -0.277916666666659 ], [ 113.27291666666666, -0.277916666666659 ], [ 113.279583333333335, -0.27125 ], [ 113.279583333333335, -0.26625 ], [ 113.282916666666665, -0.26541666666666 ], [ 113.28458333333333, -0.26125 ], [ 113.290416666666658, -0.26125 ], [ 113.294583333333335, -0.257916666666659 ], [ 113.295416666666668, -0.259583333333325 ], [ 113.297083333333333, -0.259583333333325 ], [ 113.297916666666666, -0.259583333333325 ], [ 113.299583333333331, -0.257083333333323 ], [ 113.30375, -0.257083333333323 ], [ 113.30625, -0.255416666666658 ], [ 113.30625, -0.252083333333324 ], [ 113.302083333333329, -0.250416666666659 ], [ 113.30125, -0.245416666666657 ], [ 113.30375, -0.242083333333326 ], [ 113.300416666666663, -0.240416666666658 ], [ 113.302083333333329, -0.237916666666656 ], [ 113.302083333333329, -0.232916666666657 ], [ 113.30125, -0.23041666666666 ], [ 113.300416666666663, -0.23041666666666 ], [ 113.297916666666666, -0.22875 ], [ 113.292083333333323, -0.227916666666658 ], [ 113.287083333333328, -0.222916666666659 ], [ 113.290416666666658, -0.217916666666657 ], [ 113.290416666666658, -0.212916666666658 ], [ 113.292083333333323, -0.20875 ], [ 113.294583333333335, -0.205416666666657 ], [ 113.29375, -0.205416666666657 ], [ 113.29625, -0.20375 ], [ 113.304583333333326, -0.192083333333326 ], [ 113.304583333333326, -0.187083333333323 ], [ 113.307083333333338, -0.185416666666658 ], [ 113.31125, -0.184583333333325 ], [ 113.317083333333329, -0.177916666666658 ], [ 113.317083333333329, -0.175416666666656 ], [ 113.320416666666659, -0.170416666666657 ], [ 113.324583333333337, -0.16625 ], [ 113.32375, -0.16125 ], [ 113.325416666666669, -0.159583333333323 ], [ 113.329583333333332, -0.159583333333323 ], [ 113.330416666666665, -0.157916666666658 ], [ 113.330416666666665, -0.154583333333324 ], [ 113.332916666666662, -0.154583333333324 ], [ 113.342916666666667, -0.144583333333326 ], [ 113.347916666666663, -0.144583333333326 ], [ 113.354583333333323, -0.14041666666666 ], [ 113.354583333333323, -0.137916666666658 ], [ 113.35875, -0.135416666666657 ], [ 113.360416666666666, -0.135416666666657 ], [ 113.36875, -0.135416666666657 ], [ 113.372083333333336, -0.13375 ], [ 113.377916666666664, -0.132916666666659 ], [ 113.384583333333325, -0.132916666666659 ], [ 113.389583333333334, -0.127916666666657 ], [ 113.39458333333333, -0.127916666666657 ], [ 113.395416666666662, -0.125416666666659 ], [ 113.395416666666662, -0.12375 ], [ 113.395416666666662, -0.12125 ], [ 113.39791666666666, -0.120416666666657 ], [ 113.400416666666672, -0.117083333333326 ], [ 113.400416666666672, -0.112916666666656 ], [ 113.404583333333335, -0.11125 ], [ 113.40958333333333, -0.11125 ], [ 113.41375, -0.114583333333325 ], [ 113.41791666666667, -0.114583333333325 ], [ 113.420416666666668, -0.11125 ], [ 113.420416666666668, -0.10625 ], [ 113.41875, -0.102916666666658 ], [ 113.41875, -0.092916666666657 ], [ 113.422083333333333, -0.087083333333325 ], [ 113.425416666666663, -0.08375 ], [ 113.429583333333326, -0.082083333333326 ], [ 113.435416666666669, -0.077083333333324 ], [ 113.437916666666666, -0.072916666666657 ], [ 113.437916666666666, -0.070416666666659 ], [ 113.44375, -0.06375 ], [ 113.442916666666662, -0.055416666666659 ], [ 113.442083333333329, -0.055416666666659 ], [ 113.44125, -0.05375 ], [ 113.437916666666666, -0.05375 ], [ 113.435416666666669, -0.05125 ], [ 113.419583333333335, -0.05125 ], [ 113.41625, -0.04875 ], [ 113.41625, -0.040416666666658 ], [ 113.417083333333323, -0.037916666666657 ], [ 113.414583333333326, -0.035416666666659 ], [ 113.415416666666658, -0.032916666666658 ], [ 113.41791666666667, -0.030416666666657 ], [ 113.420416666666668, -0.029583333333324 ], [ 113.420416666666668, -0.02625 ], [ 113.425416666666663, -0.02125 ], [ 113.42625, -0.019583333333326 ], [ 113.42375, -0.01625 ], [ 113.419583333333335, -0.014583333333324 ], [ 113.419583333333335, -0.01125 ], [ 113.424583333333331, -0.007916666666659 ], [ 113.42625, -0.00375 ], [ 113.429583333333326, 0.00125 ], [ 113.429583333333326, 0.004583333333343 ], [ 113.432083333333338, 0.007083333333341 ], [ 113.432083333333338, 0.00875 ], [ 113.432083333333338, 0.009583333333342 ], [ 113.430416666666659, 0.009583333333342 ], [ 113.42625, 0.01375 ], [ 113.422916666666666, 0.01375 ], [ 113.42125, 0.01625 ], [ 113.41791666666667, 0.017083333333343 ], [ 113.417083333333323, 0.01875 ], [ 113.41125, 0.02375 ], [ 113.407916666666665, 0.025416666666676 ], [ 113.407083333333333, 0.027916666666677 ], [ 113.404583333333335, 0.027916666666677 ], [ 113.40291666666667, 0.030416666666675 ], [ 113.399583333333325, 0.03125 ], [ 113.39625, 0.03375 ], [ 113.395416666666662, 0.03875 ], [ 113.395416666666662, 0.045416666666675 ], [ 113.400416666666672, 0.045416666666675 ], [ 113.40125, 0.04708333333334 ], [ 113.40125, 0.052916666666675 ], [ 113.40291666666667, 0.05375 ], [ 113.40291666666667, 0.05875 ], [ 113.404583333333335, 0.062916666666677 ], [ 113.404583333333335, 0.067916666666676 ], [ 113.40375, 0.070416666666674 ], [ 113.39875, 0.075416666666676 ], [ 113.39875, 0.077916666666674 ], [ 113.39375, 0.08375 ], [ 113.39875, 0.084583333333342 ], [ 113.402083333333337, 0.08625 ], [ 113.40375, 0.08875 ], [ 113.40375, 0.095416666666676 ], [ 113.40875, 0.099583333333342 ], [ 113.40958333333333, 0.10125 ], [ 113.412916666666661, 0.102083333333344 ], [ 113.412916666666661, 0.102916666666676 ], [ 113.412916666666661, 0.104583333333341 ], [ 113.412916666666661, 0.10958333333334 ], [ 113.414583333333326, 0.110416666666676 ], [ 113.414583333333326, 0.11375 ], [ 113.40875, 0.119583333333342 ], [ 113.40625, 0.12125 ], [ 113.405416666666667, 0.12375 ], [ 113.400416666666672, 0.12625 ], [ 113.400416666666672, 0.134583333333342 ], [ 113.39458333333333, 0.13708333333334 ], [ 113.392083333333332, 0.140416666666674 ], [ 113.38875, 0.140416666666674 ], [ 113.384583333333325, 0.14375 ], [ 113.380416666666662, 0.142916666666675 ], [ 113.372916666666669, 0.142916666666675 ], [ 113.36875, 0.147916666666674 ], [ 113.367916666666659, 0.15125 ], [ 113.36125, 0.15125 ], [ 113.354583333333323, 0.155416666666675 ], [ 113.35125, 0.155416666666675 ], [ 113.350416666666661, 0.15875 ], [ 113.34875, 0.159583333333341 ], [ 113.342083333333335, 0.159583333333341 ], [ 113.332916666666662, 0.16625 ], [ 113.325416666666669, 0.167916666666674 ], [ 113.325416666666669, 0.16875 ], [ 113.32375, 0.16875 ], [ 113.32125, 0.169583333333343 ], [ 113.314583333333331, 0.169583333333343 ], [ 113.31125, 0.172916666666676 ], [ 113.309583333333336, 0.17375 ], [ 113.307916666666671, 0.17875 ], [ 113.30375, 0.182083333333342 ], [ 113.30375, 0.187083333333341 ], [ 113.302083333333329, 0.192916666666676 ], [ 113.29875, 0.197083333333342 ], [ 113.297916666666666, 0.202083333333341 ], [ 113.295416666666668, 0.202916666666674 ], [ 113.295416666666668, 0.20625 ], [ 113.29375, 0.207916666666677 ], [ 113.29291666666667, 0.207916666666677 ], [ 113.292083333333323, 0.207916666666677 ], [ 113.28875, 0.209583333333342 ], [ 113.285416666666663, 0.212916666666676 ], [ 113.280416666666667, 0.214583333333341 ], [ 113.27875, 0.219583333333343 ], [ 113.275416666666672, 0.219583333333343 ], [ 113.27375, 0.22125 ], [ 113.275416666666672, 0.224583333333342 ], [ 113.275416666666672, 0.227916666666676 ], [ 113.272083333333327, 0.23375 ], [ 113.27291666666666, 0.23375 ], [ 113.277083333333337, 0.23625 ], [ 113.277083333333337, 0.237916666666674 ], [ 113.280416666666667, 0.239583333333343 ], [ 113.282916666666665, 0.242083333333341 ], [ 113.28458333333333, 0.247083333333343 ], [ 113.287916666666661, 0.24875 ], [ 113.287916666666661, 0.249583333333341 ], [ 113.28875, 0.24875 ], [ 113.295416666666668, 0.249583333333341 ], [ 113.29875, 0.252916666666675 ], [ 113.302083333333329, 0.254583333333343 ], [ 113.304583333333326, 0.254583333333343 ], [ 113.30625, 0.257083333333341 ], [ 113.30875, 0.257083333333341 ], [ 113.314583333333331, 0.26208333333334 ], [ 113.317083333333329, 0.262916666666676 ], [ 113.317916666666662, 0.267916666666675 ], [ 113.339583333333337, 0.267916666666675 ], [ 113.342083333333335, 0.26875 ], [ 113.34625, 0.26625 ], [ 113.35125, 0.26625 ], [ 113.35125, 0.26875 ], [ 113.35375, 0.27125 ], [ 113.357916666666668, 0.272916666666674 ], [ 113.36125, 0.27125 ], [ 113.36625, 0.27125 ], [ 113.36875, 0.26958333333334 ], [ 113.374583333333334, 0.26958333333334 ], [ 113.37625, 0.267916666666675 ], [ 113.380416666666662, 0.267916666666675 ], [ 113.38125, 0.26625 ], [ 113.38875, 0.267083333333343 ], [ 113.390416666666667, 0.265416666666674 ], [ 113.39375, 0.265416666666674 ], [ 113.40625, 0.260416666666675 ], [ 113.40625, 0.259583333333342 ], [ 113.407916666666665, 0.259583333333342 ], [ 113.410416666666663, 0.262916666666676 ], [ 113.415416666666658, 0.262916666666676 ], [ 113.420416666666668, 0.260416666666675 ], [ 113.42375, 0.262916666666676 ], [ 113.427916666666661, 0.26208333333334 ], [ 113.42875, 0.260416666666675 ], [ 113.432916666666671, 0.259583333333342 ], [ 113.44125, 0.259583333333342 ], [ 113.44125, 0.260416666666675 ], [ 113.442083333333329, 0.260416666666675 ], [ 113.444583333333327, 0.26375 ], [ 113.450416666666669, 0.26375 ], [ 113.452083333333334, 0.267916666666675 ], [ 113.454583333333332, 0.270416666666677 ], [ 113.45875, 0.272083333333342 ], [ 113.462083333333325, 0.27625 ], [ 113.464583333333337, 0.277083333333341 ], [ 113.46541666666667, 0.280416666666675 ], [ 113.467916666666667, 0.280416666666675 ], [ 113.46875, 0.282916666666676 ], [ 113.472916666666663, 0.284583333333341 ], [ 113.47375, 0.287916666666675 ], [ 113.47625, 0.290416666666676 ], [ 113.479583333333323, 0.292083333333341 ], [ 113.482083333333335, 0.292083333333341 ], [ 113.484583333333333, 0.295416666666675 ], [ 113.489583333333329, 0.29875 ], [ 113.492083333333326, 0.29875 ], [ 113.49375, 0.29625 ], [ 113.497083333333336, 0.29708333333334 ], [ 113.497083333333336, 0.297916666666676 ], [ 113.50125, 0.300416666666674 ], [ 113.50375, 0.302916666666675 ], [ 113.507916666666659, 0.302916666666675 ], [ 113.509583333333325, 0.305416666666677 ], [ 113.512916666666669, 0.305416666666677 ], [ 113.514583333333334, 0.30875 ], [ 113.512916666666669, 0.312083333333341 ], [ 113.514583333333334, 0.315416666666675 ], [ 113.517083333333332, 0.315416666666675 ], [ 113.52125, 0.312083333333341 ], [ 113.524583333333325, 0.312083333333341 ], [ 113.52791666666667, 0.31625 ], [ 113.530416666666667, 0.317083333333343 ], [ 113.530416666666667, 0.319583333333341 ], [ 113.537083333333328, 0.322083333333342 ], [ 113.537916666666661, 0.32375 ], [ 113.54291666666667, 0.32458333333334 ], [ 113.550416666666663, 0.33208333333334 ], [ 113.552916666666661, 0.33208333333334 ], [ 113.552083333333329, 0.339583333333341 ], [ 113.552916666666661, 0.34375 ], [ 113.555416666666659, 0.345416666666676 ], [ 113.555416666666659, 0.35125 ], [ 113.557083333333338, 0.352916666666676 ], [ 113.560416666666669, 0.352916666666676 ], [ 113.560416666666669, 0.355416666666674 ], [ 113.56125, 0.355416666666674 ], [ 113.564583333333331, 0.35875 ], [ 113.57875, 0.35875 ], [ 113.58208333333333, 0.357083333333343 ], [ 113.582916666666662, 0.35958333333334 ], [ 113.584583333333327, 0.35958333333334 ], [ 113.584583333333327, 0.360416666666676 ], [ 113.58541666666666, 0.360416666666676 ], [ 113.587083333333325, 0.362083333333342 ], [ 113.587083333333325, 0.36875 ], [ 113.584583333333327, 0.370416666666674 ], [ 113.584583333333327, 0.374583333333341 ], [ 113.582916666666662, 0.375416666666673 ], [ 113.58375, 0.380416666666676 ], [ 113.58375, 0.38625 ], [ 113.58208333333333, 0.38625 ], [ 113.58125, 0.390416666666674 ], [ 113.58125, 0.397916666666674 ], [ 113.584583333333327, 0.39875 ], [ 113.58541666666666, 0.400416666666676 ], [ 113.58875, 0.400416666666676 ], [ 113.592916666666667, 0.402916666666677 ], [ 113.597916666666663, 0.402916666666677 ], [ 113.602083333333326, 0.404583333333342 ], [ 113.604583333333323, 0.407083333333343 ], [ 113.610416666666666, 0.407083333333343 ], [ 113.61625, 0.409583333333341 ], [ 113.617916666666659, 0.412916666666675 ], [ 113.625416666666666, 0.412916666666675 ], [ 113.62875, 0.412916666666675 ], [ 113.62875, 0.41875 ], [ 113.630416666666662, 0.42208333333334 ], [ 113.63625, 0.427916666666675 ], [ 113.64125, 0.43125 ], [ 113.652083333333337, 0.435416666666676 ], [ 113.652083333333337, 0.437916666666673 ], [ 113.654583333333335, 0.439583333333342 ], [ 113.654583333333335, 0.440416666666675 ], [ 113.654583333333335, 0.44125 ], [ 113.65375, 0.44125 ], [ 113.65375, 0.44958333333334 ], [ 113.64875, 0.45375 ], [ 113.64875, 0.45708333333334 ], [ 113.65291666666667, 0.457916666666677 ], [ 113.655416666666667, 0.46125 ], [ 113.655416666666667, 0.46875 ], [ 113.654583333333335, 0.47125 ], [ 113.657083333333333, 0.47375 ], [ 113.657916666666665, 0.479583333333341 ], [ 113.65958333333333, 0.480416666666674 ], [ 113.65958333333333, 0.482916666666675 ], [ 113.660416666666663, 0.48875 ], [ 113.662083333333328, 0.492916666666677 ], [ 113.66791666666667, 0.49875 ], [ 113.669583333333335, 0.49875 ], [ 113.67125, 0.497083333333343 ], [ 113.677083333333329, 0.497916666666676 ], [ 113.682083333333338, 0.497916666666676 ], [ 113.685416666666669, 0.499583333333341 ], [ 113.685416666666669, 0.502916666666675 ], [ 113.68875, 0.505416666666676 ], [ 113.68875, 0.510416666666675 ], [ 113.69125, 0.512916666666676 ], [ 113.69125, 0.51625 ], [ 113.69375, 0.51875 ], [ 113.70375, 0.51875 ], [ 113.70875, 0.52375 ], [ 113.71375, 0.52625 ], [ 113.717916666666667, 0.524583333333343 ], [ 113.717916666666667, 0.522916666666674 ], [ 113.72375, 0.520416666666677 ], [ 113.73041666666667, 0.522916666666674 ], [ 113.73041666666667, 0.52375 ], [ 113.732916666666668, 0.525416666666676 ], [ 113.732083333333335, 0.52875 ], [ 113.732916666666668, 0.535416666666674 ], [ 113.737916666666663, 0.540416666666676 ], [ 113.737916666666663, 0.54375 ], [ 113.74125, 0.54708333333334 ], [ 113.752083333333331, 0.55375 ], [ 113.75125, 0.55375 ], [ 113.749583333333334, 0.55625 ], [ 113.749583333333334, 0.557916666666674 ], [ 113.750416666666666, 0.560416666666676 ], [ 113.755416666666662, 0.56375 ], [ 113.755416666666662, 0.567083333333343 ], [ 113.764583333333334, 0.575416666666676 ], [ 113.767083333333332, 0.575416666666676 ], [ 113.770416666666662, 0.577083333333341 ], [ 113.77375, 0.580416666666675 ], [ 113.77375, 0.58208333333334 ], [ 113.779583333333335, 0.585416666666674 ], [ 113.782916666666665, 0.585416666666674 ], [ 113.78458333333333, 0.587916666666676 ], [ 113.789583333333326, 0.590416666666673 ], [ 113.79291666666667, 0.59375 ], [ 113.799583333333331, 0.594583333333343 ], [ 113.802916666666661, 0.592916666666675 ], [ 113.802916666666661, 0.590416666666673 ], [ 113.805416666666659, 0.587916666666676 ], [ 113.80875, 0.58625 ], [ 113.80875, 0.58375 ], [ 113.81125, 0.577916666666674 ], [ 113.814583333333331, 0.57625 ], [ 113.819583333333327, 0.575416666666676 ], [ 113.820416666666659, 0.575416666666676 ], [ 113.82125, 0.575416666666676 ], [ 113.824583333333337, 0.577916666666674 ], [ 113.82625, 0.577916666666674 ], [ 113.827083333333334, 0.582916666666677 ], [ 113.829583333333332, 0.58625 ], [ 113.832916666666662, 0.587083333333343 ], [ 113.832916666666662, 0.592083333333342 ], [ 113.839583333333337, 0.600416666666675 ], [ 113.842916666666667, 0.600416666666675 ], [ 113.84375, 0.60375 ], [ 113.84708333333333, 0.607916666666675 ], [ 113.84708333333333, 0.60875 ], [ 113.84708333333333, 0.60958333333334 ], [ 113.842083333333335, 0.614583333333343 ], [ 113.837083333333325, 0.62125 ], [ 113.83375, 0.622083333333343 ], [ 113.834583333333327, 0.627916666666675 ], [ 113.834583333333327, 0.632916666666674 ], [ 113.832916666666662, 0.632916666666674 ], [ 113.82875, 0.637916666666676 ], [ 113.82875, 0.639583333333341 ], [ 113.82375, 0.64458333333334 ], [ 113.825416666666669, 0.647916666666674 ], [ 113.832916666666662, 0.64875 ], [ 113.837083333333325, 0.647916666666674 ], [ 113.83875, 0.650416666666676 ], [ 113.83875, 0.654583333333342 ], [ 113.84041666666667, 0.657083333333343 ], [ 113.842083333333335, 0.657083333333343 ], [ 113.847916666666663, 0.65125 ], [ 113.85625, 0.65125 ], [ 113.857083333333335, 0.652916666666673 ], [ 113.86375, 0.652916666666673 ], [ 113.867083333333326, 0.65375 ], [ 113.86875, 0.65125 ], [ 113.874583333333334, 0.65125 ], [ 113.877083333333331, 0.652916666666673 ], [ 113.879583333333329, 0.65125 ], [ 113.879583333333329, 0.64875 ], [ 113.88625, 0.647916666666674 ], [ 113.89625, 0.647916666666674 ], [ 113.900416666666672, 0.64375 ], [ 113.90375, 0.645416666666677 ], [ 113.917083333333323, 0.645416666666677 ], [ 113.91875, 0.64375 ], [ 113.92375, 0.64375 ], [ 113.92625, 0.64458333333334 ], [ 113.92875, 0.647916666666674 ], [ 113.93375, 0.647083333333342 ], [ 113.934583333333336, 0.649583333333343 ], [ 113.937916666666666, 0.649583333333343 ], [ 113.94125, 0.652916666666673 ], [ 113.94625, 0.652083333333341 ], [ 113.950416666666669, 0.647916666666674 ], [ 113.962916666666672, 0.647916666666674 ], [ 113.964583333333337, 0.65125 ], [ 113.964583333333337, 0.654583333333342 ], [ 113.96625, 0.657083333333343 ], [ 113.969583333333333, 0.657083333333343 ], [ 113.972916666666663, 0.660416666666674 ], [ 113.977083333333326, 0.660416666666674 ], [ 113.982916666666668, 0.654583333333342 ], [ 113.98875, 0.65375 ], [ 113.994583333333338, 0.647916666666674 ], [ 113.999583333333334, 0.645416666666677 ], [ 114.00125, 0.642083333333343 ], [ 114.00375, 0.64125 ], [ 114.00375, 0.642083333333343 ], [ 114.005416666666662, 0.642083333333343 ], [ 114.00875, 0.645416666666677 ], [ 114.010416666666657, 0.649583333333343 ], [ 114.01375, 0.649583333333343 ], [ 114.014583333333334, 0.655416666666675 ], [ 114.01625, 0.657083333333343 ], [ 114.01625, 0.66125 ], [ 114.02291666666666, 0.667083333333341 ], [ 114.025416666666672, 0.667916666666674 ], [ 114.027083333333337, 0.67125 ], [ 114.032083333333333, 0.669583333333343 ], [ 114.03875, 0.669583333333343 ], [ 114.040416666666658, 0.67125 ], [ 114.040416666666658, 0.670416666666675 ], [ 114.04125, 0.669583333333343 ], [ 114.055416666666659, 0.669583333333343 ], [ 114.055416666666659, 0.67125 ], [ 114.05625, 0.67625 ], [ 114.060416666666669, 0.67625 ], [ 114.064583333333331, 0.680416666666677 ], [ 114.06875, 0.68125 ], [ 114.072083333333325, 0.684583333333343 ], [ 114.07375, 0.689583333333342 ], [ 114.080416666666665, 0.68875 ], [ 114.084583333333327, 0.690416666666675 ], [ 114.084583333333327, 0.692083333333343 ], [ 114.087916666666672, 0.69375 ], [ 114.09041666666667, 0.69625 ], [ 114.09041666666667, 0.69875 ], [ 114.092916666666667, 0.697083333333342 ], [ 114.09625, 0.697083333333342 ], [ 114.100416666666661, 0.692083333333343 ], [ 114.10375, 0.692083333333343 ], [ 114.107916666666668, 0.694583333333341 ], [ 114.11125, 0.695416666666674 ], [ 114.11625, 0.695416666666674 ], [ 114.119583333333338, 0.69625 ], [ 114.120416666666671, 0.694583333333341 ], [ 114.12375, 0.694583333333341 ], [ 114.124583333333334, 0.692916666666676 ], [ 114.127083333333331, 0.692916666666676 ], [ 114.127916666666664, 0.687916666666673 ], [ 114.13125, 0.687916666666673 ], [ 114.13625, 0.68625 ], [ 114.13625, 0.684583333333343 ], [ 114.140416666666667, 0.68375 ], [ 114.142916666666665, 0.67875 ], [ 114.145416666666662, 0.679583333333341 ], [ 114.15125, 0.679583333333341 ], [ 114.15375, 0.680416666666677 ], [ 114.157916666666665, 0.67875 ], [ 114.15875, 0.67375 ], [ 114.16125, 0.67125 ], [ 114.162916666666661, 0.66625 ], [ 114.165416666666658, 0.66375 ], [ 114.165416666666658, 0.662083333333342 ], [ 114.160416666666663, 0.65625 ], [ 114.16125, 0.654583333333342 ], [ 114.162916666666661, 0.649583333333343 ], [ 114.16625, 0.64625 ], [ 114.170416666666668, 0.645416666666677 ], [ 114.172083333333333, 0.642916666666675 ], [ 114.174583333333331, 0.642083333333343 ], [ 114.17625, 0.642083333333343 ], [ 114.177083333333329, 0.640416666666674 ], [ 114.177083333333329, 0.63375 ], [ 114.177916666666661, 0.627083333333342 ], [ 114.179583333333326, 0.62625 ], [ 114.179583333333326, 0.61625 ], [ 114.17625, 0.60958333333334 ], [ 114.17625, 0.605416666666674 ], [ 114.174583333333331, 0.60375 ], [ 114.17125, 0.60375 ], [ 114.16875, 0.605416666666674 ], [ 114.165416666666658, 0.605416666666674 ], [ 114.162083333333328, 0.60208333333334 ], [ 114.15375, 0.60208333333334 ], [ 114.145416666666662, 0.595416666666676 ], [ 114.14625, 0.595416666666676 ], [ 114.14875, 0.592916666666675 ], [ 114.14875, 0.592083333333342 ], [ 114.15125, 0.59125 ], [ 114.157083333333333, 0.59125 ], [ 114.165416666666658, 0.584583333333342 ], [ 114.16875, 0.58375 ], [ 114.177916666666661, 0.58375 ], [ 114.17875, 0.579583333333343 ], [ 114.182083333333338, 0.580416666666675 ], [ 114.18375, 0.58375 ], [ 114.187916666666666, 0.585416666666674 ], [ 114.195416666666659, 0.585416666666674 ], [ 114.19375, 0.580416666666675 ], [ 114.19375, 0.57375 ], [ 114.195416666666659, 0.569583333333341 ], [ 114.197916666666657, 0.567083333333343 ], [ 114.197916666666657, 0.557083333333342 ], [ 114.19875, 0.552083333333343 ], [ 114.20125, 0.55125 ], [ 114.20125, 0.544583333333343 ], [ 114.202083333333334, 0.540416666666676 ], [ 114.20375, 0.540416666666676 ], [ 114.20875, 0.537916666666675 ], [ 114.212083333333325, 0.537083333333342 ], [ 114.214583333333337, 0.53375 ], [ 114.220416666666665, 0.530416666666675 ], [ 114.227083333333326, 0.530416666666675 ], [ 114.23125, 0.52625 ], [ 114.237083333333331, 0.525416666666676 ], [ 114.240416666666661, 0.522083333333342 ], [ 114.24375, 0.522916666666674 ], [ 114.247083333333336, 0.52125 ], [ 114.24875, 0.522916666666674 ], [ 114.24875, 0.527083333333341 ], [ 114.250416666666666, 0.53125 ], [ 114.255416666666662, 0.532083333333343 ], [ 114.259583333333325, 0.532083333333343 ], [ 114.262916666666669, 0.52875 ], [ 114.267083333333332, 0.52875 ], [ 114.26958333333333, 0.53125 ], [ 114.274583333333325, 0.530416666666675 ], [ 114.277083333333337, 0.535416666666674 ], [ 114.28625, 0.535416666666674 ], [ 114.287916666666661, 0.534583333333341 ], [ 114.289583333333326, 0.537916666666675 ], [ 114.29375, 0.537916666666675 ], [ 114.29625, 0.53625 ], [ 114.297083333333333, 0.532916666666676 ], [ 114.300416666666663, 0.53375 ], [ 114.307083333333338, 0.53375 ], [ 114.31125, 0.532916666666676 ], [ 114.31125, 0.53375 ], [ 114.31625, 0.534583333333341 ], [ 114.319583333333327, 0.537916666666675 ], [ 114.320416666666659, 0.540416666666676 ], [ 114.322083333333325, 0.540416666666676 ], [ 114.32625, 0.537083333333342 ], [ 114.32875, 0.537916666666675 ], [ 114.334583333333327, 0.537083333333342 ], [ 114.342083333333335, 0.53375 ], [ 114.342083333333335, 0.534583333333341 ], [ 114.342916666666667, 0.534583333333341 ], [ 114.350416666666661, 0.542083333333341 ], [ 114.35125, 0.54375 ], [ 114.360416666666666, 0.552916666666675 ], [ 114.36125, 0.55625 ], [ 114.36125, 0.557916666666674 ], [ 114.364583333333329, 0.557916666666674 ], [ 114.367916666666659, 0.560416666666676 ], [ 114.367916666666659, 0.562083333333341 ], [ 114.372916666666669, 0.562083333333341 ], [ 114.37375, 0.56375 ], [ 114.37875, 0.56375 ], [ 114.380416666666662, 0.562083333333341 ], [ 114.38625, 0.562916666666673 ], [ 114.387083333333337, 0.562916666666673 ], [ 114.387083333333337, 0.55625 ], [ 114.389583333333334, 0.55375 ], [ 114.39458333333333, 0.55375 ], [ 114.40291666666667, 0.550416666666674 ], [ 114.412916666666661, 0.550416666666674 ], [ 114.419583333333335, 0.545416666666675 ], [ 114.42125, 0.542916666666674 ], [ 114.422083333333333, 0.542916666666674 ], [ 114.42375, 0.542916666666674 ], [ 114.42625, 0.54375 ], [ 114.429583333333326, 0.54125 ], [ 114.43375, 0.54125 ], [ 114.434583333333336, 0.54125 ], [ 114.437083333333334, 0.544583333333343 ], [ 114.442916666666662, 0.547916666666676 ], [ 114.447083333333325, 0.54708333333334 ], [ 114.452083333333334, 0.552083333333343 ], [ 114.452083333333334, 0.55375 ], [ 114.455416666666665, 0.555416666666677 ], [ 114.46041666666666, 0.555416666666677 ], [ 114.464583333333337, 0.559583333333343 ], [ 114.46541666666667, 0.559583333333343 ], [ 114.46541666666667, 0.56125 ], [ 114.46875, 0.56125 ], [ 114.47208333333333, 0.562083333333341 ], [ 114.474583333333328, 0.56625 ], [ 114.477083333333326, 0.56625 ], [ 114.479583333333323, 0.570416666666674 ], [ 114.484583333333333, 0.570416666666674 ], [ 114.487916666666663, 0.569583333333341 ], [ 114.48875, 0.57125 ], [ 114.490416666666661, 0.57125 ], [ 114.495416666666671, 0.56625 ], [ 114.502916666666664, 0.565416666666675 ], [ 114.50875, 0.56625 ], [ 114.51125, 0.564583333333342 ], [ 114.512916666666669, 0.56125 ], [ 114.520416666666662, 0.56125 ], [ 114.52375, 0.562083333333341 ], [ 114.52625, 0.564583333333342 ], [ 114.527083333333337, 0.56875 ], [ 114.529583333333335, 0.57125 ], [ 114.535416666666663, 0.572083333333342 ], [ 114.535416666666663, 0.575416666666676 ], [ 114.537916666666661, 0.577916666666674 ], [ 114.54375, 0.58208333333334 ], [ 114.54625, 0.585416666666674 ], [ 114.54625, 0.58625 ], [ 114.545416666666668, 0.58625 ], [ 114.545416666666668, 0.594583333333343 ], [ 114.549583333333331, 0.59875 ], [ 114.54625, 0.600416666666675 ], [ 114.545416666666668, 0.602916666666676 ], [ 114.54125, 0.607083333333343 ], [ 114.54125, 0.610416666666676 ], [ 114.542916666666656, 0.612083333333342 ], [ 114.542916666666656, 0.615416666666675 ], [ 114.540416666666658, 0.619583333333342 ], [ 114.542916666666656, 0.62375 ], [ 114.542916666666656, 0.62875 ], [ 114.544583333333335, 0.630416666666676 ], [ 114.54625, 0.630416666666676 ], [ 114.54875, 0.627916666666675 ], [ 114.55125, 0.627083333333342 ], [ 114.562083333333334, 0.627083333333342 ], [ 114.564583333333331, 0.625416666666673 ], [ 114.57125, 0.625416666666673 ], [ 114.572916666666657, 0.627916666666675 ], [ 114.577083333333334, 0.627916666666675 ], [ 114.58125, 0.629583333333343 ], [ 114.58541666666666, 0.632916666666674 ], [ 114.59125, 0.632916666666674 ], [ 114.59708333333333, 0.632083333333341 ], [ 114.602083333333326, 0.632916666666674 ], [ 114.602916666666658, 0.635416666666675 ], [ 114.60625, 0.63708333333334 ], [ 114.60625, 0.64125 ], [ 114.609583333333333, 0.645416666666677 ], [ 114.612916666666663, 0.645416666666677 ], [ 114.614583333333329, 0.647916666666674 ], [ 114.617083333333326, 0.647916666666674 ], [ 114.620416666666671, 0.64625 ], [ 114.620416666666671, 0.647916666666674 ], [ 114.62625, 0.654583333333342 ], [ 114.627916666666664, 0.657916666666676 ], [ 114.632083333333327, 0.657916666666676 ], [ 114.63625, 0.660416666666674 ], [ 114.637083333333337, 0.660416666666674 ], [ 114.637916666666669, 0.66125 ], [ 114.637916666666669, 0.667083333333341 ], [ 114.63875, 0.670416666666675 ], [ 114.64375, 0.67375 ], [ 114.647083333333327, 0.674583333333342 ], [ 114.652083333333337, 0.674583333333342 ], [ 114.652083333333337, 0.677083333333343 ], [ 114.655416666666667, 0.680416666666677 ], [ 114.655416666666667, 0.689583333333342 ], [ 114.654583333333335, 0.69125 ], [ 114.657083333333333, 0.69375 ], [ 114.662916666666661, 0.695416666666674 ], [ 114.667916666666656, 0.70125 ], [ 114.667916666666656, 0.70375 ], [ 114.669583333333335, 0.70375 ], [ 114.672916666666666, 0.702083333333341 ], [ 114.67875, 0.702083333333341 ], [ 114.684583333333336, 0.70708333333334 ], [ 114.695416666666659, 0.70708333333334 ], [ 114.697083333333325, 0.70708333333334 ], [ 114.697083333333325, 0.70375 ], [ 114.69875, 0.70125 ], [ 114.702916666666667, 0.702083333333341 ], [ 114.71125, 0.702083333333341 ], [ 114.71125, 0.70125 ], [ 114.717083333333335, 0.70125 ], [ 114.717916666666667, 0.70125 ], [ 114.722916666666663, 0.70708333333334 ], [ 114.727916666666658, 0.707916666666677 ], [ 114.72875, 0.709583333333342 ], [ 114.739583333333329, 0.71375 ], [ 114.739583333333329, 0.717083333333342 ], [ 114.74375, 0.719583333333343 ], [ 114.74375, 0.72125 ], [ 114.750416666666666, 0.72625 ], [ 114.757916666666659, 0.72708333333334 ], [ 114.762083333333337, 0.730416666666674 ], [ 114.76875, 0.730416666666674 ], [ 114.77291666666666, 0.73125 ], [ 114.774583333333325, 0.72875 ], [ 114.782916666666665, 0.727916666666676 ], [ 114.78375, 0.729583333333341 ], [ 114.787083333333328, 0.729583333333341 ], [ 114.789583333333326, 0.732083333333343 ], [ 114.790416666666658, 0.73458333333334 ], [ 114.794583333333335, 0.73625 ], [ 114.795416666666668, 0.740416666666675 ], [ 114.799583333333331, 0.74125 ], [ 114.800416666666663, 0.739583333333343 ], [ 114.805416666666659, 0.739583333333343 ], [ 114.810416666666669, 0.74375 ], [ 114.81125, 0.747916666666676 ], [ 114.81375, 0.75125 ], [ 114.817083333333329, 0.752916666666675 ], [ 114.824583333333337, 0.75125 ], [ 114.824583333333337, 0.752083333333342 ], [ 114.827083333333334, 0.754583333333343 ], [ 114.832916666666662, 0.754583333333343 ], [ 114.83541666666666, 0.752083333333342 ], [ 114.839583333333337, 0.749583333333341 ], [ 114.839583333333337, 0.747083333333343 ], [ 114.842083333333335, 0.74625 ], [ 114.844583333333333, 0.74375 ], [ 114.847916666666663, 0.74375 ], [ 114.849583333333328, 0.74125 ], [ 114.85375, 0.740416666666675 ], [ 114.855416666666656, 0.737916666666674 ], [ 114.86125, 0.737083333333342 ], [ 114.864583333333329, 0.73875 ], [ 114.865416666666661, 0.74125 ], [ 114.87375, 0.742083333333341 ], [ 114.87625, 0.744583333333342 ], [ 114.87875, 0.744583333333342 ], [ 114.87875, 0.745416666666674 ], [ 114.88125, 0.749583333333341 ], [ 114.88375, 0.749583333333341 ], [ 114.88875, 0.754583333333343 ], [ 114.88875, 0.757916666666674 ], [ 114.89625, 0.76125 ], [ 114.899583333333325, 0.76125 ], [ 114.900416666666658, 0.762916666666676 ], [ 114.90375, 0.762916666666676 ], [ 114.904583333333335, 0.76625 ], [ 114.90875, 0.76625 ], [ 114.910416666666663, 0.76958333333334 ], [ 114.91375, 0.772916666666674 ], [ 114.912916666666661, 0.777083333333341 ], [ 114.912916666666661, 0.779583333333342 ], [ 114.912083333333328, 0.779583333333342 ], [ 114.912083333333328, 0.78125 ], [ 114.912916666666661, 0.78125 ], [ 114.912916666666661, 0.780416666666675 ], [ 114.914583333333326, 0.77875 ], [ 114.917916666666656, 0.77875 ], [ 114.917916666666656, 0.77625 ], [ 114.92125, 0.772916666666674 ], [ 114.927916666666661, 0.772083333333342 ], [ 114.939583333333331, 0.77375 ], [ 114.942083333333329, 0.772083333333342 ], [ 114.942083333333329, 0.76875 ], [ 114.944583333333327, 0.767083333333343 ], [ 114.944583333333327, 0.76375 ], [ 114.942916666666662, 0.76208333333334 ], [ 114.94375, 0.75375 ], [ 114.94625, 0.75125 ], [ 114.945416666666659, 0.749583333333341 ], [ 114.945416666666659, 0.744583333333342 ], [ 114.95625, 0.744583333333342 ], [ 114.96125, 0.74625 ], [ 114.962916666666658, 0.744583333333342 ], [ 114.96625, 0.744583333333342 ], [ 114.97125, 0.742916666666677 ], [ 114.97375, 0.744583333333342 ], [ 114.980416666666656, 0.737916666666674 ], [ 114.98125, 0.73375 ], [ 114.98375, 0.732083333333343 ], [ 114.98375, 0.73125 ], [ 114.982916666666668, 0.727916666666676 ], [ 114.984583333333333, 0.72625 ], [ 114.984583333333333, 0.722916666666674 ], [ 114.987083333333331, 0.719583333333343 ], [ 114.989583333333329, 0.717916666666675 ], [ 114.990416666666661, 0.715416666666673 ], [ 114.990416666666661, 0.70875 ], [ 114.99125, 0.704583333333343 ], [ 114.99125, 0.69958333333334 ], [ 114.992083333333326, 0.69958333333334 ], [ 114.992916666666659, 0.69375 ], [ 114.994583333333338, 0.689583333333342 ], [ 114.994583333333338, 0.68625 ], [ 114.997083333333336, 0.682916666666674 ], [ 114.997083333333336, 0.677916666666675 ], [ 114.99875, 0.67625 ], [ 114.997916666666669, 0.669583333333343 ], [ 114.999583333333334, 0.667916666666674 ], [ 114.999583333333334, 0.660416666666674 ], [ 115.00125, 0.65875 ], [ 115.002083333333331, 0.652083333333341 ], [ 115.002083333333331, 0.645416666666677 ], [ 115.00375, 0.64375 ], [ 115.00375, 0.637916666666676 ], [ 115.00625, 0.63375 ], [ 115.00625, 0.630416666666676 ], [ 115.007916666666659, 0.627916666666675 ], [ 115.007916666666659, 0.617083333333341 ], [ 115.00875, 0.617083333333341 ], [ 115.00875, 0.614583333333343 ], [ 115.009583333333325, 0.60875 ], [ 115.01125, 0.604583333333341 ], [ 115.014583333333334, 0.60208333333334 ], [ 115.014583333333334, 0.599583333333342 ], [ 115.01875, 0.595416666666676 ], [ 115.01875, 0.592916666666675 ], [ 115.022083333333327, 0.584583333333342 ], [ 115.025416666666658, 0.582916666666677 ], [ 115.025416666666658, 0.579583333333343 ], [ 115.029583333333335, 0.577083333333341 ], [ 115.029583333333335, 0.57458333333334 ], [ 115.032916666666665, 0.572916666666675 ], [ 115.032916666666665, 0.564583333333342 ], [ 115.03625, 0.562083333333341 ], [ 115.03875, 0.557083333333342 ], [ 115.03875, 0.55375 ], [ 115.04125, 0.55125 ], [ 115.044583333333335, 0.545416666666675 ], [ 115.045416666666668, 0.545416666666675 ], [ 115.04625, 0.545416666666675 ], [ 115.047916666666666, 0.540416666666676 ], [ 115.052083333333329, 0.53625 ], [ 115.05375, 0.53625 ], [ 115.05875, 0.53125 ], [ 115.06125, 0.527083333333341 ], [ 115.06375, 0.527083333333341 ], [ 115.067916666666662, 0.522083333333342 ], [ 115.07125, 0.51625 ], [ 115.072916666666657, 0.515416666666674 ], [ 115.075416666666669, 0.510416666666675 ], [ 115.075416666666669, 0.507916666666674 ], [ 115.079583333333332, 0.50375 ], [ 115.079583333333332, 0.50125 ], [ 115.082916666666662, 0.497916666666676 ], [ 115.084583333333327, 0.49375 ], [ 115.084583333333327, 0.48875 ], [ 115.087916666666658, 0.485416666666676 ], [ 115.08875, 0.47875 ], [ 115.087083333333325, 0.47875 ], [ 115.08625, 0.472916666666674 ], [ 115.079583333333332, 0.472916666666674 ], [ 115.079583333333332, 0.472083333333341 ], [ 115.077916666666667, 0.47125 ], [ 115.077916666666667, 0.46875 ], [ 115.080416666666665, 0.46875 ], [ 115.08125, 0.46625 ], [ 115.08375, 0.46625 ], [ 115.087916666666658, 0.465416666666677 ], [ 115.089583333333337, 0.462916666666676 ], [ 115.08875, 0.459583333333342 ], [ 115.09041666666667, 0.45875 ], [ 115.092083333333335, 0.454583333333343 ], [ 115.09375, 0.452916666666674 ], [ 115.09875, 0.452916666666674 ], [ 115.102083333333326, 0.447083333333342 ], [ 115.107083333333335, 0.444583333333341 ], [ 115.109583333333333, 0.444583333333341 ], [ 115.11125, 0.447083333333342 ], [ 115.117083333333326, 0.44625 ], [ 115.119583333333338, 0.444583333333341 ], [ 115.12125, 0.440416666666675 ], [ 115.12375, 0.440416666666675 ], [ 115.12875, 0.43625 ], [ 115.13375, 0.43125 ], [ 115.13375, 0.42625 ], [ 115.13625, 0.424583333333342 ], [ 115.13625, 0.42375 ], [ 115.134583333333325, 0.417083333333341 ], [ 115.132916666666659, 0.415416666666676 ], [ 115.132083333333327, 0.40875 ], [ 115.13375, 0.40625 ], [ 115.13375, 0.402083333333341 ], [ 115.13125, 0.399583333333343 ], [ 115.130416666666662, 0.392083333333343 ], [ 115.130416666666662, 0.382916666666674 ], [ 115.12875, 0.38125 ], [ 115.12875, 0.372916666666676 ], [ 115.124583333333334, 0.372083333333343 ], [ 115.119583333333338, 0.372083333333343 ], [ 115.117083333333326, 0.369583333333342 ], [ 115.115416666666661, 0.365416666666675 ], [ 115.11125, 0.362083333333342 ], [ 115.11125, 0.36125 ], [ 115.109583333333333, 0.35875 ], [ 115.105416666666656, 0.35625 ], [ 115.102916666666658, 0.35625 ], [ 115.09708333333333, 0.352916666666676 ], [ 115.087916666666658, 0.34625 ], [ 115.084583333333327, 0.34625 ], [ 115.082916666666662, 0.34375 ], [ 115.08375, 0.34375 ], [ 115.08375, 0.339583333333341 ], [ 115.079583333333332, 0.334583333333342 ], [ 115.077916666666667, 0.330416666666675 ], [ 115.07625, 0.330416666666675 ], [ 115.07125, 0.327916666666674 ], [ 115.070416666666659, 0.32625 ], [ 115.062916666666666, 0.32458333333334 ], [ 115.059583333333336, 0.32125 ], [ 115.05875, 0.31875 ], [ 115.05625, 0.317916666666676 ], [ 115.05625, 0.312916666666673 ], [ 115.052916666666661, 0.30625 ], [ 115.052083333333329, 0.30125 ], [ 115.049583333333331, 0.30125 ], [ 115.047916666666666, 0.29875 ], [ 115.042083333333323, 0.29875 ], [ 115.037083333333328, 0.302083333333343 ], [ 115.037083333333328, 0.30375 ], [ 115.037916666666661, 0.309583333333343 ], [ 115.037083333333328, 0.315416666666675 ], [ 115.03458333333333, 0.317083333333343 ], [ 115.03458333333333, 0.319583333333341 ], [ 115.02791666666667, 0.32375 ], [ 115.02625, 0.32375 ], [ 115.02375, 0.327083333333341 ], [ 115.02375, 0.330416666666675 ], [ 115.02125, 0.330416666666675 ], [ 115.01958333333333, 0.330416666666675 ], [ 115.01625, 0.329583333333343 ], [ 115.014583333333334, 0.327916666666674 ], [ 115.010416666666657, 0.32875 ], [ 115.005416666666662, 0.32875 ], [ 115.004583333333329, 0.327083333333341 ], [ 114.997916666666669, 0.327083333333341 ], [ 114.99625, 0.330416666666675 ], [ 114.990416666666661, 0.33375 ], [ 114.990416666666661, 0.334583333333342 ], [ 114.98625, 0.33375 ], [ 114.985416666666666, 0.33208333333334 ], [ 114.980416666666656, 0.33125 ], [ 114.97875, 0.329583333333343 ], [ 114.97375, 0.32875 ], [ 114.962916666666658, 0.320416666666674 ], [ 114.957916666666662, 0.320416666666674 ], [ 114.95375, 0.319583333333341 ], [ 114.952083333333334, 0.32125 ], [ 114.952083333333334, 0.327916666666674 ], [ 114.95125, 0.330416666666675 ], [ 114.947083333333325, 0.33375 ], [ 114.940416666666664, 0.33375 ], [ 114.937916666666666, 0.33208333333334 ], [ 114.932916666666671, 0.33208333333334 ], [ 114.930416666666659, 0.329583333333343 ], [ 114.92625, 0.327916666666674 ], [ 114.91875, 0.327083333333341 ], [ 114.912916666666661, 0.32375 ], [ 114.90875, 0.319583333333341 ], [ 114.90625, 0.317916666666676 ], [ 114.904583333333335, 0.317916666666676 ], [ 114.900416666666658, 0.31625 ], [ 114.900416666666658, 0.314583333333342 ], [ 114.89458333333333, 0.30875 ], [ 114.89458333333333, 0.30625 ], [ 114.892083333333332, 0.302083333333343 ], [ 114.88875, 0.300416666666674 ], [ 114.88625, 0.297916666666676 ], [ 114.88375, 0.29708333333334 ], [ 114.882916666666659, 0.29375 ], [ 114.885416666666657, 0.289583333333344 ], [ 114.885416666666657, 0.28625 ], [ 114.887083333333337, 0.285416666666674 ], [ 114.885416666666657, 0.280416666666675 ], [ 114.88375, 0.280416666666675 ], [ 114.87875, 0.27875 ], [ 114.877083333333331, 0.277083333333341 ], [ 114.872083333333336, 0.274583333333343 ], [ 114.86875, 0.27375 ], [ 114.867083333333326, 0.27625 ], [ 114.862916666666663, 0.27625 ], [ 114.860416666666666, 0.274583333333343 ], [ 114.857083333333335, 0.270416666666677 ], [ 114.855416666666656, 0.26125 ], [ 114.855416666666656, 0.25625 ], [ 114.850416666666661, 0.250416666666673 ], [ 114.844583333333333, 0.25125 ], [ 114.842083333333335, 0.24875 ], [ 114.83625, 0.249583333333341 ], [ 114.834583333333327, 0.245416666666674 ], [ 114.834583333333327, 0.242083333333341 ], [ 114.830416666666665, 0.240416666666675 ], [ 114.827083333333334, 0.237916666666674 ], [ 114.819583333333327, 0.237916666666674 ], [ 114.82125, 0.23625 ], [ 114.822083333333325, 0.232916666666675 ], [ 114.825416666666669, 0.22875 ], [ 114.82875, 0.22625 ], [ 114.832916666666662, 0.225416666666675 ], [ 114.832916666666662, 0.22375 ], [ 114.83208333333333, 0.217083333333342 ], [ 114.830416666666665, 0.212916666666676 ], [ 114.827916666666667, 0.209583333333342 ], [ 114.827916666666667, 0.204583333333343 ], [ 114.830416666666665, 0.20125 ], [ 114.830416666666665, 0.192083333333343 ], [ 114.829583333333332, 0.19125 ], [ 114.82875, 0.19125 ], [ 114.827083333333334, 0.192916666666676 ], [ 114.824583333333337, 0.190416666666675 ], [ 114.822083333333325, 0.189583333333342 ], [ 114.815416666666664, 0.18375 ], [ 114.81375, 0.179583333333341 ], [ 114.805416666666659, 0.17875 ], [ 114.80125, 0.174583333333342 ], [ 114.80125, 0.17208333333334 ], [ 114.79125, 0.16875 ], [ 114.790416666666658, 0.16625 ], [ 114.787916666666661, 0.16375 ], [ 114.785416666666663, 0.16375 ], [ 114.779583333333335, 0.16125 ], [ 114.774583333333325, 0.15625 ], [ 114.772083333333327, 0.155416666666675 ], [ 114.77125, 0.152916666666677 ], [ 114.767916666666665, 0.152916666666677 ], [ 114.764583333333334, 0.149583333333343 ], [ 114.75875, 0.13875 ], [ 114.75875, 0.135416666666675 ], [ 114.75875, 0.134583333333342 ], [ 114.759583333333325, 0.132916666666674 ], [ 114.764583333333334, 0.127916666666675 ], [ 114.767916666666665, 0.12625 ], [ 114.770416666666662, 0.122083333333343 ], [ 114.77375, 0.12125 ], [ 114.77375, 0.11625 ], [ 114.772083333333327, 0.115416666666675 ], [ 114.772083333333327, 0.10875 ], [ 114.77125, 0.107083333333343 ], [ 114.767916666666665, 0.107083333333343 ], [ 114.762916666666669, 0.105416666666674 ], [ 114.760416666666657, 0.10375 ], [ 114.754583333333329, 0.10375 ], [ 114.74875, 0.09875 ], [ 114.74625, 0.09375 ], [ 114.744583333333338, 0.09375 ], [ 114.740416666666661, 0.090416666666677 ], [ 114.73125, 0.08875 ], [ 114.73125, 0.085416666666674 ], [ 114.727083333333326, 0.080416666666675 ], [ 114.72375, 0.077916666666674 ], [ 114.72125, 0.07875 ], [ 114.71541666666667, 0.08375 ], [ 114.709583333333327, 0.08208333333334 ], [ 114.709583333333327, 0.07875 ], [ 114.707916666666662, 0.077916666666674 ], [ 114.707916666666662, 0.077083333333341 ], [ 114.707916666666662, 0.07458333333334 ], [ 114.709583333333327, 0.07375 ], [ 114.71041666666666, 0.06875 ], [ 114.712083333333325, 0.065416666666675 ], [ 114.714583333333337, 0.06375 ], [ 114.714583333333337, 0.060416666666676 ], [ 114.717083333333335, 0.057916666666674 ], [ 114.717083333333335, 0.054583333333341 ], [ 114.71875, 0.052916666666675 ], [ 114.71875, 0.04875 ], [ 114.72208333333333, 0.04708333333334 ], [ 114.72625, 0.04708333333334 ], [ 114.727083333333326, 0.045416666666675 ], [ 114.732083333333335, 0.04625 ], [ 114.732916666666668, 0.03875 ], [ 114.734583333333333, 0.037916666666675 ], [ 114.734583333333333, 0.034583333333341 ], [ 114.73625, 0.032083333333343 ], [ 114.742083333333326, 0.032916666666676 ], [ 114.742916666666659, 0.034583333333341 ], [ 114.74625, 0.034583333333341 ], [ 114.74875, 0.032083333333343 ], [ 114.74875, 0.032916666666676 ], [ 114.75125, 0.034583333333341 ], [ 114.755416666666662, 0.035416666666674 ], [ 114.757083333333327, 0.034583333333341 ], [ 114.765416666666667, 0.034583333333341 ], [ 114.77125, 0.035416666666674 ], [ 114.77291666666666, 0.037083333333342 ], [ 114.77875, 0.037083333333342 ], [ 114.782083333333333, 0.03375 ], [ 114.787083333333328, 0.03375 ], [ 114.792916666666656, 0.030416666666675 ], [ 114.792916666666656, 0.027083333333341 ], [ 114.795416666666668, 0.02625 ], [ 114.795416666666668, 0.022083333333342 ], [ 114.797083333333333, 0.01875 ], [ 114.797083333333333, 0.01375 ], [ 114.794583333333335, 0.01125 ], [ 114.79625, 0.00625 ], [ 114.79625, -0.000416666666659 ], [ 114.802083333333329, -0.002083333333324 ], [ 114.802083333333329, -0.004583333333326 ], [ 114.805416666666659, -0.007083333333323 ], [ 114.812083333333334, -0.007083333333323 ], [ 114.815416666666664, -0.004583333333326 ], [ 114.81625, -0.004583333333326 ], [ 114.81625, -0.00625 ], [ 114.819583333333327, -0.007916666666659 ], [ 114.822083333333325, -0.01125 ], [ 114.822083333333325, -0.01375 ], [ 114.827083333333334, -0.01375 ], [ 114.83208333333333, -0.017083333333325 ], [ 114.83208333333333, -0.02125 ], [ 114.830416666666665, -0.02375 ], [ 114.830416666666665, -0.027916666666659 ], [ 114.83375, -0.032083333333325 ], [ 114.832916666666662, -0.03625 ], [ 114.832916666666662, -0.04125 ], [ 114.837083333333325, -0.044583333333325 ], [ 114.83875, -0.044583333333325 ], [ 114.839583333333337, -0.044583333333325 ], [ 114.84375, -0.037083333333324 ], [ 114.84625, -0.037083333333324 ], [ 114.85125, -0.03375 ], [ 114.85625, -0.02875 ], [ 114.85875, -0.027083333333326 ], [ 114.85875, -0.024583333333325 ], [ 114.862083333333331, -0.02375 ], [ 114.862916666666663, -0.022083333333324 ], [ 114.870416666666671, -0.022083333333324 ], [ 114.872916666666669, -0.020416666666659 ], [ 114.872916666666669, -0.017916666666657 ], [ 114.877083333333331, -0.01625 ], [ 114.877083333333331, -0.01875 ], [ 114.882083333333327, -0.022083333333324 ], [ 114.884583333333325, -0.022916666666656 ], [ 114.887083333333337, -0.025416666666658 ], [ 114.892083333333332, -0.02625 ], [ 114.897083333333327, -0.030416666666657 ], [ 114.897083333333327, -0.03125 ], [ 114.89875, -0.032916666666658 ], [ 114.89791666666666, -0.03875 ], [ 114.899583333333325, -0.039583333333326 ], [ 114.89875, -0.04625 ], [ 114.904583333333335, -0.04625 ], [ 114.90625, -0.04875 ], [ 114.90625, -0.055416666666659 ], [ 114.90875, -0.057916666666657 ], [ 114.90875, -0.06125 ], [ 114.90625, -0.06375 ], [ 114.905416666666667, -0.072083333333325 ], [ 114.90375, -0.072916666666657 ], [ 114.90291666666667, -0.079583333333325 ], [ 114.90291666666667, -0.085416666666656 ], [ 114.907083333333333, -0.08875 ], [ 114.907083333333333, -0.092083333333324 ], [ 114.912916666666661, -0.092916666666657 ], [ 114.917916666666656, -0.092916666666657 ], [ 114.91875, -0.097916666666659 ], [ 114.922083333333333, -0.10125 ], [ 114.922083333333333, -0.112083333333324 ], [ 114.924583333333331, -0.114583333333325 ], [ 114.922916666666666, -0.11875 ], [ 114.920416666666668, -0.119583333333324 ], [ 114.920416666666668, -0.12875 ], [ 114.917083333333323, -0.13125 ], [ 114.91625, -0.13625 ], [ 114.917916666666656, -0.14125 ], [ 114.92125, -0.144583333333326 ], [ 114.92375, -0.145416666666659 ], [ 114.92375, -0.150416666666658 ], [ 114.927083333333329, -0.15375 ], [ 114.927083333333329, -0.157916666666658 ], [ 114.929583333333326, -0.15875 ], [ 114.929583333333326, -0.16625 ], [ 114.927916666666661, -0.167083333333323 ], [ 114.92875, -0.172916666666659 ], [ 114.92875, -0.175416666666656 ], [ 114.92375, -0.177916666666658 ], [ 114.922083333333333, -0.182916666666657 ], [ 114.92625, -0.185416666666658 ], [ 114.925416666666663, -0.192083333333326 ], [ 114.922916666666666, -0.192916666666658 ], [ 114.92125, -0.197916666666657 ], [ 114.91875, -0.19875 ], [ 114.91875, -0.199583333333326 ], [ 114.91875, -0.200416666666658 ], [ 114.917083333333323, -0.202083333333324 ], [ 114.917083333333323, -0.205416666666657 ], [ 114.91875, -0.207916666666659 ], [ 114.91875, -0.212083333333325 ], [ 114.92125, -0.215416666666659 ], [ 114.92375, -0.217083333333324 ], [ 114.92375, -0.225416666666657 ], [ 114.924583333333331, -0.22875 ], [ 114.925416666666663, -0.22875 ], [ 114.930416666666659, -0.229583333333323 ], [ 114.930416666666659, -0.232083333333325 ], [ 114.93375, -0.232916666666657 ], [ 114.935416666666669, -0.235416666666659 ], [ 114.935416666666669, -0.23875 ], [ 114.937083333333334, -0.24125 ], [ 114.94125, -0.240416666666658 ], [ 114.942916666666662, -0.242083333333326 ], [ 114.942916666666662, -0.247083333333325 ], [ 114.94625, -0.247083333333325 ], [ 114.947083333333325, -0.242916666666659 ], [ 114.95375, -0.242916666666659 ], [ 114.955416666666665, -0.24375 ], [ 114.955416666666665, -0.249583333333323 ], [ 114.957916666666662, -0.250416666666659 ], [ 114.957916666666662, -0.257916666666659 ], [ 114.96041666666666, -0.257916666666659 ], [ 114.96041666666666, -0.26375 ], [ 114.96375, -0.264583333333324 ], [ 114.967083333333335, -0.267083333333325 ], [ 114.97625, -0.267083333333325 ], [ 114.977083333333326, -0.26875 ], [ 114.984583333333333, -0.272916666666656 ], [ 114.98625, -0.272916666666656 ], [ 114.984583333333333, -0.27875 ], [ 114.982083333333335, -0.28125 ], [ 114.97375, -0.28125 ], [ 114.972916666666663, -0.28625 ], [ 114.97125, -0.287083333333324 ], [ 114.97125, -0.287916666666657 ], [ 114.967916666666667, -0.28625 ], [ 114.96125, -0.285416666666659 ], [ 114.95875, -0.287916666666657 ], [ 114.957916666666662, -0.29291666666666 ], [ 114.952083333333334, -0.29375 ], [ 114.950416666666669, -0.29375 ], [ 114.950416666666669, -0.29291666666666 ], [ 114.944583333333327, -0.29291666666666 ], [ 114.939583333333331, -0.29125 ], [ 114.937916666666666, -0.29291666666666 ], [ 114.937083333333334, -0.297083333333326 ], [ 114.937083333333334, -0.302916666666658 ], [ 114.934583333333336, -0.30375 ], [ 114.932083333333338, -0.30625 ], [ 114.927083333333329, -0.307916666666657 ], [ 114.92625, -0.312083333333323 ], [ 114.917916666666656, -0.312083333333323 ], [ 114.912916666666661, -0.30875 ], [ 114.905416666666667, -0.309583333333325 ], [ 114.904583333333335, -0.31125 ], [ 114.895416666666662, -0.310416666666658 ], [ 114.892916666666665, -0.307916666666657 ], [ 114.892083333333332, -0.30375 ], [ 114.889583333333334, -0.30125 ], [ 114.887083333333337, -0.30375 ], [ 114.88375, -0.305416666666659 ], [ 114.88375, -0.30875 ], [ 114.882083333333327, -0.312916666666659 ], [ 114.880416666666662, -0.314583333333324 ], [ 114.87375, -0.31375 ], [ 114.87125, -0.315416666666657 ], [ 114.87125, -0.319583333333323 ], [ 114.869583333333338, -0.320416666666659 ], [ 114.869583333333338, -0.32791666666666 ], [ 114.862916666666663, -0.330416666666657 ], [ 114.862916666666663, -0.33375 ], [ 114.86125, -0.337083333333325 ], [ 114.85875, -0.339583333333326 ], [ 114.857083333333335, -0.342916666666657 ], [ 114.857083333333335, -0.34625 ], [ 114.85375, -0.34875 ], [ 114.85125, -0.34875 ], [ 114.850416666666661, -0.35125 ], [ 114.845416666666665, -0.352916666666658 ], [ 114.837916666666658, -0.352083333333326 ], [ 114.83375, -0.35375 ], [ 114.83125, -0.35375 ], [ 114.830416666666665, -0.35625 ], [ 114.832916666666662, -0.35875 ], [ 114.832916666666662, -0.362916666666656 ], [ 114.83625, -0.36875 ], [ 114.83625, -0.37375 ], [ 114.83125, -0.375416666666659 ], [ 114.829583333333332, -0.377916666666657 ], [ 114.829583333333332, -0.382916666666659 ], [ 114.83125, -0.385416666666657 ], [ 114.83125, -0.389583333333324 ], [ 114.827916666666667, -0.39125 ], [ 114.827916666666667, -0.395416666666659 ], [ 114.829583333333332, -0.39625 ], [ 114.829583333333332, -0.399583333333325 ], [ 114.82625, -0.40125 ], [ 114.82625, -0.407083333333325 ], [ 114.82625, -0.40875 ], [ 114.824583333333337, -0.410416666666659 ], [ 114.817083333333329, -0.410416666666659 ], [ 114.814583333333331, -0.41375 ], [ 114.81125, -0.415416666666658 ], [ 114.810416666666669, -0.415416666666658 ], [ 114.812083333333334, -0.41875 ], [ 114.814583333333331, -0.42125 ], [ 114.81375, -0.422916666666659 ], [ 114.80875, -0.427916666666658 ], [ 114.807916666666671, -0.434583333333325 ], [ 114.80875, -0.437916666666659 ], [ 114.810416666666669, -0.439583333333324 ], [ 114.809583333333336, -0.44625 ], [ 114.807916666666671, -0.44625 ], [ 114.807916666666671, -0.450416666666658 ], [ 114.810416666666669, -0.45291666666666 ], [ 114.810416666666669, -0.45875 ], [ 114.81125, -0.46375 ], [ 114.807916666666671, -0.46375 ], [ 114.807083333333338, -0.465416666666659 ], [ 114.80375, -0.46625 ], [ 114.79625, -0.46625 ], [ 114.79625, -0.46875 ], [ 114.790416666666658, -0.467916666666657 ], [ 114.790416666666658, -0.472083333333323 ], [ 114.787083333333328, -0.474583333333324 ], [ 114.787083333333328, -0.479583333333323 ], [ 114.78375, -0.482916666666657 ], [ 114.78375, -0.485416666666659 ], [ 114.779583333333335, -0.487083333333324 ], [ 114.779583333333335, -0.492916666666659 ], [ 114.777083333333337, -0.492916666666659 ], [ 114.777083333333337, -0.497916666666658 ], [ 114.77375, -0.50125 ], [ 114.77125, -0.50125 ], [ 114.770416666666662, -0.50625 ], [ 114.772083333333327, -0.507916666666659 ], [ 114.772083333333327, -0.512083333333326 ], [ 114.76958333333333, -0.514583333333324 ], [ 114.770416666666662, -0.519583333333326 ], [ 114.767083333333332, -0.522083333333324 ], [ 114.767083333333332, -0.52375 ], [ 114.767083333333332, -0.525416666666658 ], [ 114.76875, -0.527083333333323 ], [ 114.76875, -0.53125 ], [ 114.767083333333332, -0.53625 ], [ 114.767083333333332, -0.539583333333326 ], [ 114.767083333333332, -0.540416666666658 ], [ 114.772083333333327, -0.540416666666658 ], [ 114.775416666666658, -0.54291666666666 ], [ 114.775416666666658, -0.545416666666657 ], [ 114.780416666666667, -0.54625 ], [ 114.780416666666667, -0.550416666666656 ], [ 114.78625, -0.55125 ], [ 114.78625, -0.557083333333324 ], [ 114.782083333333333, -0.55875 ], [ 114.78125, -0.562083333333323 ], [ 114.785416666666663, -0.565416666666657 ], [ 114.79375, -0.565416666666657 ], [ 114.79375, -0.567916666666658 ], [ 114.79875, -0.57125 ], [ 114.804583333333326, -0.57125 ], [ 114.805416666666659, -0.57375 ], [ 114.809583333333336, -0.57375 ], [ 114.81125, -0.57625 ], [ 114.81375, -0.57625 ], [ 114.815416666666664, -0.579583333333325 ], [ 114.812916666666666, -0.580416666666657 ], [ 114.814583333333331, -0.58375 ], [ 114.815416666666664, -0.587916666666658 ], [ 114.815416666666664, -0.589583333333323 ], [ 114.812083333333334, -0.589583333333323 ], [ 114.81125, -0.592083333333324 ], [ 114.812083333333334, -0.597083333333323 ], [ 114.815416666666664, -0.600416666666657 ], [ 114.812083333333334, -0.602083333333326 ], [ 114.810416666666669, -0.60541666666666 ], [ 114.810416666666669, -0.609583333333326 ], [ 114.814583333333331, -0.612916666666656 ], [ 114.817916666666662, -0.612916666666656 ], [ 114.82125, -0.617083333333326 ], [ 114.82125, -0.627916666666657 ], [ 114.820416666666659, -0.62875 ], [ 114.817083333333329, -0.63125 ], [ 114.810416666666669, -0.63125 ], [ 114.807083333333338, -0.63375 ], [ 114.802916666666661, -0.63375 ], [ 114.799583333333331, -0.637083333333326 ], [ 114.797083333333333, -0.634583333333325 ], [ 114.790416666666658, -0.634583333333325 ], [ 114.78875, -0.63875 ], [ 114.785416666666663, -0.640416666666656 ], [ 114.782083333333333, -0.640416666666656 ], [ 114.780416666666667, -0.642916666666657 ], [ 114.775416666666658, -0.64375 ], [ 114.767083333333332, -0.64375 ], [ 114.767083333333332, -0.644583333333326 ], [ 114.764583333333334, -0.644583333333326 ], [ 114.764583333333334, -0.652083333333323 ], [ 114.762916666666669, -0.652083333333323 ], [ 114.757916666666659, -0.65625 ], [ 114.757916666666659, -0.65875 ], [ 114.760416666666657, -0.662083333333324 ], [ 114.760416666666657, -0.667083333333323 ], [ 114.755416666666662, -0.667083333333323 ], [ 114.752916666666664, -0.669583333333325 ], [ 114.752916666666664, -0.67125 ], [ 114.747083333333336, -0.67125 ], [ 114.742083333333326, -0.672083333333326 ], [ 114.742083333333326, -0.67625 ], [ 114.732916666666668, -0.67625 ], [ 114.729583333333323, -0.675416666666656 ], [ 114.727083333333326, -0.67875 ], [ 114.72375, -0.680416666666659 ], [ 114.719583333333333, -0.68125 ], [ 114.714583333333337, -0.68625 ], [ 114.71041666666666, -0.68625 ], [ 114.71041666666666, -0.69125 ], [ 114.704583333333332, -0.692083333333326 ], [ 114.702916666666667, -0.69375 ], [ 114.699583333333337, -0.694583333333323 ], [ 114.697083333333325, -0.697083333333325 ], [ 114.692083333333329, -0.697916666666657 ], [ 114.692083333333329, -0.702083333333324 ], [ 114.689583333333331, -0.704583333333325 ], [ 114.68625, -0.704583333333325 ], [ 114.685416666666669, -0.707916666666659 ], [ 114.68125, -0.707916666666659 ], [ 114.68125, -0.712916666666658 ], [ 114.67625, -0.71375 ], [ 114.675416666666663, -0.71875 ], [ 114.675416666666663, -0.720416666666658 ], [ 114.67375, -0.725416666666657 ], [ 114.67375, -0.72875 ], [ 114.67625, -0.73125 ], [ 114.67625, -0.742083333333326 ], [ 114.674583333333331, -0.742083333333326 ], [ 114.674583333333331, -0.74625 ], [ 114.677083333333329, -0.749583333333323 ], [ 114.677083333333329, -0.752916666666657 ], [ 114.675416666666663, -0.75625 ], [ 114.67125, -0.757916666666659 ], [ 114.672916666666666, -0.759583333333325 ], [ 114.672083333333333, -0.762916666666658 ], [ 114.670416666666668, -0.76375 ], [ 114.670416666666668, -0.767083333333325 ], [ 114.66875, -0.770416666666659 ], [ 114.665416666666658, -0.772916666666656 ], [ 114.664583333333326, -0.772916666666656 ], [ 114.665416666666658, -0.779583333333324 ], [ 114.667916666666656, -0.780416666666657 ], [ 114.667083333333323, -0.787083333333324 ], [ 114.665416666666658, -0.792083333333323 ], [ 114.667083333333323, -0.795416666666657 ], [ 114.667083333333323, -0.799583333333324 ], [ 114.665416666666658, -0.802083333333325 ], [ 114.662916666666661, -0.802916666666658 ], [ 114.662083333333328, -0.805416666666659 ], [ 114.657916666666665, -0.807083333333324 ], [ 114.657083333333333, -0.804583333333323 ], [ 114.65375, -0.804583333333323 ], [ 114.65125, -0.807083333333324 ], [ 114.64458333333333, -0.810416666666658 ], [ 114.64125, -0.81375 ], [ 114.637083333333337, -0.81375 ], [ 114.63375, -0.81625 ], [ 114.63375, -0.81875 ], [ 114.625416666666666, -0.81875 ], [ 114.620416666666671, -0.819583333333323 ], [ 114.61625, -0.81625 ], [ 114.61375, -0.81625 ], [ 114.61125, -0.81625 ], [ 114.609583333333333, -0.81625 ], [ 114.602916666666658, -0.824583333333326 ], [ 114.599583333333328, -0.82625 ], [ 114.59625, -0.82625 ], [ 114.59125, -0.82375 ], [ 114.587916666666658, -0.827916666666656 ], [ 114.58625, -0.827916666666656 ], [ 114.58625, -0.832916666666659 ], [ 114.58541666666666, -0.834583333333324 ], [ 114.580416666666665, -0.835416666666656 ], [ 114.579583333333332, -0.837916666666658 ], [ 114.577083333333334, -0.837916666666658 ], [ 114.574583333333337, -0.840416666666659 ], [ 114.572083333333325, -0.840416666666659 ], [ 114.569583333333327, -0.842916666666657 ], [ 114.564583333333331, -0.842916666666657 ], [ 114.565416666666664, -0.847083333333323 ], [ 114.560416666666669, -0.847083333333323 ], [ 114.55875, -0.847916666666659 ], [ 114.55625, -0.845416666666658 ], [ 114.55375, -0.845416666666658 ], [ 114.550416666666663, -0.847916666666659 ], [ 114.550416666666663, -0.85125 ], [ 114.54875, -0.852083333333326 ], [ 114.54875, -0.854583333333323 ], [ 114.54875, -0.85541666666666 ], [ 114.552916666666661, -0.857083333333325 ], [ 114.552916666666661, -0.86125 ], [ 114.557083333333338, -0.86625 ], [ 114.55875, -0.86375 ], [ 114.56125, -0.86375 ], [ 114.565416666666664, -0.86875 ], [ 114.565416666666664, -0.87125 ], [ 114.56875, -0.87125 ], [ 114.56875, -0.877916666666657 ], [ 114.565416666666664, -0.879583333333326 ], [ 114.565416666666664, -0.88375 ], [ 114.56125, -0.88625 ], [ 114.560416666666669, -0.890416666666656 ], [ 114.557083333333338, -0.889583333333324 ], [ 114.552083333333329, -0.889583333333324 ], [ 114.552083333333329, -0.895416666666659 ], [ 114.545416666666668, -0.89625 ], [ 114.54375, -0.897916666666656 ], [ 114.54375, -0.90125 ], [ 114.54625, -0.902083333333323 ], [ 114.547083333333333, -0.905416666666657 ], [ 114.55125, -0.905416666666657 ], [ 114.552916666666661, -0.90875 ], [ 114.555416666666659, -0.909583333333323 ], [ 114.55625, -0.914583333333326 ], [ 114.554583333333326, -0.91791666666666 ], [ 114.55375, -0.91791666666666 ], [ 114.550416666666663, -0.91791666666666 ], [ 114.54625, -0.912916666666657 ], [ 114.542916666666656, -0.912083333333324 ], [ 114.542916666666656, -0.910416666666659 ], [ 114.539583333333326, -0.907083333333325 ], [ 114.537083333333328, -0.907083333333325 ], [ 114.53625, -0.904583333333324 ], [ 114.529583333333335, -0.905416666666657 ], [ 114.52875, -0.902916666666659 ], [ 114.522083333333327, -0.902916666666659 ], [ 114.515416666666667, -0.902083333333323 ], [ 114.51375, -0.904583333333324 ], [ 114.509583333333325, -0.904583333333324 ], [ 114.507083333333327, -0.902083333333323 ], [ 114.507083333333327, -0.894583333333326 ], [ 114.50375, -0.894583333333326 ], [ 114.502083333333331, -0.892083333333325 ], [ 114.497916666666669, -0.892916666666657 ], [ 114.497083333333336, -0.895416666666659 ], [ 114.49125, -0.89625 ], [ 114.487916666666663, -0.899583333333325 ], [ 114.482916666666668, -0.900416666666658 ], [ 114.479583333333323, -0.902083333333323 ], [ 114.477083333333326, -0.904583333333324 ], [ 114.474583333333328, -0.904583333333324 ], [ 114.47375, -0.907083333333325 ], [ 114.46875, -0.90875 ], [ 114.46875, -0.904583333333324 ], [ 114.46625, -0.904583333333324 ], [ 114.464583333333337, -0.904583333333324 ], [ 114.464583333333337, -0.90375 ], [ 114.46125, -0.90125 ], [ 114.45625, -0.900416666666658 ], [ 114.45625, -0.89625 ], [ 114.45875, -0.894583333333326 ], [ 114.459583333333327, -0.889583333333324 ], [ 114.46125, -0.887083333333326 ], [ 114.46375, -0.887083333333326 ], [ 114.46875, -0.884583333333325 ], [ 114.46875, -0.88125 ], [ 114.46375, -0.87625 ], [ 114.46375, -0.87375 ], [ 114.462083333333325, -0.869583333333324 ], [ 114.46541666666667, -0.867916666666659 ], [ 114.467916666666667, -0.864583333333325 ], [ 114.467916666666667, -0.86125 ], [ 114.46541666666667, -0.859583333333326 ], [ 114.46541666666667, -0.85375 ], [ 114.464583333333337, -0.85375 ], [ 114.46541666666667, -0.849583333333324 ], [ 114.462916666666658, -0.84875 ], [ 114.459583333333327, -0.845416666666658 ], [ 114.45375, -0.845416666666658 ], [ 114.45125, -0.842916666666657 ], [ 114.45125, -0.83875 ], [ 114.447916666666657, -0.837916666666658 ], [ 114.449583333333337, -0.834583333333324 ], [ 114.449583333333337, -0.829583333333325 ], [ 114.452916666666667, -0.827083333333324 ], [ 114.452916666666667, -0.82375 ], [ 114.44875, -0.822083333333325 ], [ 114.449583333333337, -0.814583333333324 ], [ 114.44875, -0.810416666666658 ], [ 114.449583333333337, -0.80875 ], [ 114.44375, -0.80875 ], [ 114.442083333333329, -0.80875 ], [ 114.44125, -0.804583333333323 ], [ 114.437916666666666, -0.80125 ], [ 114.43375, -0.800416666666656 ], [ 114.43125, -0.797916666666659 ], [ 114.43125, -0.794583333333325 ], [ 114.435416666666669, -0.794583333333325 ], [ 114.434583333333336, -0.790416666666658 ], [ 114.434583333333336, -0.789583333333326 ], [ 114.434583333333336, -0.78875 ], [ 114.42125, -0.787083333333324 ], [ 114.41375, -0.787083333333324 ], [ 114.407083333333333, -0.785416666666659 ], [ 114.404583333333335, -0.78375 ], [ 114.40375, -0.78375 ], [ 114.402083333333337, -0.78375 ], [ 114.400416666666672, -0.785416666666659 ], [ 114.395416666666662, -0.785416666666659 ], [ 114.392916666666665, -0.78625 ], [ 114.39125, -0.78875 ], [ 114.38875, -0.789583333333326 ], [ 114.38625, -0.792083333333323 ], [ 114.382916666666659, -0.792083333333323 ], [ 114.38125, -0.795416666666657 ], [ 114.377916666666664, -0.795416666666657 ], [ 114.377916666666664, -0.797916666666659 ], [ 114.375416666666666, -0.800416666666656 ], [ 114.374583333333334, -0.804583333333323 ], [ 114.374583333333334, -0.805416666666659 ], [ 114.374583333333334, -0.80625 ], [ 114.377916666666664, -0.810416666666658 ], [ 114.380416666666662, -0.810416666666658 ], [ 114.380416666666662, -0.814583333333324 ], [ 114.382083333333327, -0.817083333333326 ], [ 114.382083333333327, -0.820416666666659 ], [ 114.385416666666657, -0.825416666666658 ], [ 114.385416666666657, -0.830416666666657 ], [ 114.382916666666659, -0.834583333333324 ], [ 114.387916666666669, -0.834583333333324 ], [ 114.390416666666667, -0.839583333333323 ], [ 114.390416666666667, -0.840416666666659 ], [ 114.384583333333325, -0.844583333333325 ], [ 114.387083333333337, -0.849583333333324 ], [ 114.385416666666657, -0.857083333333325 ], [ 114.38125, -0.86125 ], [ 114.377916666666664, -0.862916666666656 ], [ 114.375416666666666, -0.862916666666656 ], [ 114.374583333333334, -0.86625 ], [ 114.37375, -0.86625 ], [ 114.37125, -0.869583333333324 ], [ 114.367083333333326, -0.869583333333324 ], [ 114.364583333333329, -0.867916666666659 ], [ 114.362083333333331, -0.86875 ], [ 114.362083333333331, -0.872083333333325 ], [ 114.360416666666666, -0.87375 ], [ 114.354583333333323, -0.872916666666658 ], [ 114.35375, -0.87875 ], [ 114.352083333333326, -0.87875 ], [ 114.352916666666658, -0.88125 ], [ 114.352916666666658, -0.892083333333325 ], [ 114.35125, -0.894583333333326 ], [ 114.35125, -0.899583333333325 ], [ 114.352916666666658, -0.905416666666657 ], [ 114.35125, -0.907083333333325 ], [ 114.35125, -0.91125 ], [ 114.349583333333328, -0.91791666666666 ], [ 114.34625, -0.919583333333325 ], [ 114.342916666666667, -0.919583333333325 ], [ 114.34125, -0.917083333333323 ], [ 114.337916666666672, -0.917083333333323 ], [ 114.337916666666672, -0.92375 ], [ 114.33541666666666, -0.927083333333325 ], [ 114.329583333333332, -0.927083333333325 ], [ 114.327916666666667, -0.92625 ], [ 114.322916666666657, -0.92625 ], [ 114.32125, -0.927083333333325 ], [ 114.322083333333325, -0.932916666666657 ], [ 114.32125, -0.93625 ], [ 114.324583333333337, -0.937083333333323 ], [ 114.32625, -0.94125 ], [ 114.329583333333332, -0.940416666666657 ], [ 114.329583333333332, -0.94625 ], [ 114.327916666666667, -0.947083333333325 ], [ 114.327916666666667, -0.95875 ], [ 114.32875, -0.959583333333324 ], [ 114.327916666666667, -0.959583333333324 ], [ 114.325416666666669, -0.960416666666656 ], [ 114.325416666666669, -0.962916666666658 ], [ 114.31875, -0.962916666666658 ], [ 114.31625, -0.962083333333325 ], [ 114.314583333333331, -0.964583333333323 ], [ 114.31125, -0.96375 ], [ 114.30875, -0.96625 ], [ 114.30875, -0.967916666666657 ], [ 114.30625, -0.965416666666659 ], [ 114.305416666666659, -0.965416666666659 ], [ 114.304583333333326, -0.962916666666658 ], [ 114.300416666666663, -0.960416666666656 ], [ 114.299583333333331, -0.952916666666656 ], [ 114.299583333333331, -0.944583333333323 ], [ 114.295416666666668, -0.94375 ], [ 114.295416666666668, -0.942083333333326 ], [ 114.290416666666658, -0.94125 ], [ 114.282916666666665, -0.94125 ], [ 114.27875, -0.939583333333324 ], [ 114.27875, -0.94125 ], [ 114.27125, -0.942083333333326 ], [ 114.26958333333333, -0.937916666666659 ], [ 114.264583333333334, -0.937916666666659 ], [ 114.264583333333334, -0.934583333333325 ], [ 114.262083333333337, -0.932916666666657 ], [ 114.260416666666657, -0.92875 ], [ 114.257916666666659, -0.92875 ], [ 114.257083333333327, -0.92625 ], [ 114.252916666666664, -0.922916666666659 ], [ 114.250416666666666, -0.922916666666659 ], [ 114.247083333333336, -0.920416666666657 ], [ 114.24375, -0.920416666666657 ], [ 114.23875, -0.919583333333325 ], [ 114.237916666666663, -0.917083333333323 ], [ 114.240416666666661, -0.914583333333326 ], [ 114.240416666666661, -0.912083333333324 ], [ 114.239583333333329, -0.912083333333324 ], [ 114.237083333333331, -0.912083333333324 ], [ 114.234583333333333, -0.91125 ], [ 114.23375, -0.90875 ], [ 114.23125, -0.907916666666658 ], [ 114.224583333333328, -0.90875 ], [ 114.222916666666663, -0.90625 ], [ 114.219583333333333, -0.90625 ], [ 114.21875, -0.902916666666659 ], [ 114.214583333333337, -0.90125 ], [ 114.214583333333337, -0.89875 ], [ 114.21041666666666, -0.894583333333326 ], [ 114.21041666666666, -0.89125 ], [ 114.207916666666662, -0.890416666666656 ], [ 114.207916666666662, -0.887916666666658 ], [ 114.20625, -0.884583333333325 ], [ 114.200416666666669, -0.884583333333325 ], [ 114.200416666666669, -0.87875 ], [ 114.19875, -0.87875 ], [ 114.197916666666657, -0.87375 ], [ 114.200416666666669, -0.87125 ], [ 114.20125, -0.86875 ], [ 114.199583333333337, -0.862083333333324 ], [ 114.194583333333327, -0.862083333333324 ], [ 114.194583333333327, -0.857083333333325 ], [ 114.195416666666659, -0.854583333333323 ], [ 114.19875, -0.852083333333326 ], [ 114.202916666666667, -0.852083333333326 ], [ 114.202916666666667, -0.84625 ], [ 114.20625, -0.845416666666658 ], [ 114.209583333333327, -0.840416666666659 ], [ 114.21541666666667, -0.84125 ], [ 114.217916666666667, -0.837916666666658 ], [ 114.219583333333333, -0.837916666666658 ], [ 114.219583333333333, -0.837083333333325 ], [ 114.22125, -0.835416666666656 ], [ 114.22125, -0.829583333333325 ], [ 114.219583333333333, -0.827916666666656 ], [ 114.219583333333333, -0.82375 ], [ 114.217916666666667, -0.820416666666659 ], [ 114.220416666666665, -0.817916666666658 ], [ 114.22375, -0.817916666666658 ], [ 114.22375, -0.81375 ], [ 114.22125, -0.812916666666659 ], [ 114.22125, -0.809583333333325 ], [ 114.21875, -0.807916666666657 ], [ 114.21375, -0.809583333333325 ], [ 114.212916666666672, -0.807083333333324 ], [ 114.21041666666666, -0.807916666666657 ], [ 114.204583333333332, -0.807916666666657 ], [ 114.204583333333332, -0.80625 ], [ 114.197916666666657, -0.79875 ], [ 114.197083333333325, -0.79291666666666 ], [ 114.19375, -0.79375 ], [ 114.187916666666666, -0.79375 ], [ 114.18625, -0.795416666666657 ], [ 114.182916666666671, -0.795416666666657 ], [ 114.182083333333338, -0.792083333333323 ], [ 114.17625, -0.79125 ], [ 114.17625, -0.787083333333324 ], [ 114.174583333333331, -0.782916666666658 ], [ 114.17875, -0.77875 ], [ 114.179583333333326, -0.77875 ], [ 114.179583333333326, -0.775416666666658 ], [ 114.17625, -0.77125 ], [ 114.172083333333333, -0.77125 ], [ 114.17125, -0.772916666666656 ], [ 114.165416666666658, -0.772916666666656 ], [ 114.164583333333326, -0.76875 ], [ 114.165416666666658, -0.76625 ], [ 114.16125, -0.76375 ], [ 114.15625, -0.76375 ], [ 114.152083333333337, -0.764583333333324 ], [ 114.15125, -0.767916666666657 ], [ 114.150416666666672, -0.767916666666657 ], [ 114.15125, -0.769583333333326 ], [ 114.155416666666667, -0.77125 ], [ 114.155416666666667, -0.772916666666656 ], [ 114.15125, -0.772916666666656 ], [ 114.14791666666666, -0.77625 ], [ 114.14625, -0.779583333333324 ], [ 114.14458333333333, -0.779583333333324 ], [ 114.14375, -0.777083333333323 ], [ 114.139583333333334, -0.77625 ], [ 114.13875, -0.770416666666659 ], [ 114.134583333333325, -0.76875 ], [ 114.132083333333327, -0.764583333333324 ], [ 114.127916666666664, -0.765416666666656 ], [ 114.127083333333331, -0.762916666666658 ], [ 114.12625, -0.762916666666658 ], [ 114.124583333333334, -0.760416666666657 ], [ 114.124583333333334, -0.75625 ], [ 114.127083333333331, -0.752916666666657 ], [ 114.12625, -0.750416666666659 ], [ 114.12125, -0.749583333333323 ], [ 114.11875, -0.74625 ], [ 114.112083333333331, -0.747083333333325 ], [ 114.109583333333333, -0.744583333333324 ], [ 114.107083333333335, -0.74375 ], [ 114.10625, -0.74125 ], [ 114.09708333333333, -0.739583333333325 ], [ 114.095416666666665, -0.737083333333324 ], [ 114.09625, -0.73375 ], [ 114.099583333333328, -0.732916666666657 ], [ 114.099583333333328, -0.72875 ], [ 114.095416666666665, -0.727916666666658 ], [ 114.095416666666665, -0.72375 ], [ 114.09375, -0.720416666666658 ], [ 114.09375, -0.712916666666658 ], [ 114.09625, -0.71125 ], [ 114.102916666666658, -0.71125 ], [ 114.10541666666667, -0.709583333333324 ], [ 114.10541666666667, -0.704583333333325 ], [ 114.110416666666666, -0.704583333333325 ], [ 114.11125, -0.702083333333324 ], [ 114.117083333333326, -0.702916666666656 ], [ 114.11625, -0.700416666666658 ], [ 114.112916666666663, -0.699583333333326 ], [ 114.11375, -0.69625 ], [ 114.115416666666661, -0.695416666666659 ], [ 114.115416666666661, -0.689583333333324 ], [ 114.117916666666659, -0.687916666666659 ], [ 114.122916666666669, -0.687916666666659 ], [ 114.122916666666669, -0.680416666666659 ], [ 114.125416666666666, -0.677916666666658 ], [ 114.130416666666662, -0.675416666666656 ], [ 114.129583333333329, -0.670416666666657 ], [ 114.132916666666659, -0.669583333333325 ], [ 114.132916666666659, -0.66625 ], [ 114.13625, -0.665416666666658 ], [ 114.13625, -0.660416666666659 ], [ 114.142916666666665, -0.66125 ], [ 114.142916666666665, -0.65625 ], [ 114.14458333333333, -0.65375 ], [ 114.14875, -0.65375 ], [ 114.150416666666672, -0.650416666666658 ], [ 114.15125, -0.650416666666658 ], [ 114.150416666666672, -0.647083333333324 ], [ 114.15375, -0.647083333333324 ], [ 114.15291666666667, -0.64375 ], [ 114.14875, -0.639583333333324 ], [ 114.14458333333333, -0.639583333333324 ], [ 114.142083333333332, -0.637916666666658 ], [ 114.142083333333332, -0.63375 ], [ 114.140416666666667, -0.63375 ], [ 114.132916666666659, -0.63375 ], [ 114.132083333333327, -0.637083333333326 ], [ 114.12125, -0.637083333333326 ], [ 114.12125, -0.63625 ], [ 114.120416666666671, -0.634583333333325 ], [ 114.112083333333331, -0.634583333333325 ], [ 114.110416666666666, -0.630416666666658 ], [ 114.10125, -0.62125 ], [ 114.094583333333333, -0.619583333333324 ], [ 114.09125, -0.61625 ], [ 114.087916666666672, -0.614583333333325 ], [ 114.08541666666666, -0.612083333333324 ], [ 114.08125, -0.610416666666659 ], [ 114.08125, -0.60541666666666 ], [ 114.07875, -0.60125 ], [ 114.075416666666669, -0.600416666666657 ], [ 114.07375, -0.59875 ], [ 114.06875, -0.59625 ], [ 114.067916666666662, -0.590416666666659 ], [ 114.059583333333336, -0.580416666666657 ], [ 114.065416666666664, -0.575416666666658 ], [ 114.06625, -0.575416666666658 ], [ 114.06625, -0.572083333333325 ], [ 114.070416666666659, -0.567916666666658 ], [ 114.07125, -0.564583333333324 ], [ 114.069583333333327, -0.56375 ], [ 114.069583333333327, -0.560416666666658 ], [ 114.07125, -0.557083333333324 ], [ 114.07375, -0.557083333333324 ], [ 114.07875, -0.55375 ], [ 114.07875, -0.552916666666658 ], [ 114.07875, -0.552083333333325 ], [ 114.069583333333327, -0.544583333333325 ], [ 114.067083333333329, -0.54125 ], [ 114.062916666666666, -0.540416666666658 ], [ 114.059583333333336, -0.53875 ], [ 114.059583333333336, -0.535416666666659 ], [ 114.054583333333326, -0.534583333333323 ], [ 114.050416666666663, -0.532083333333325 ], [ 114.050416666666663, -0.52625 ], [ 114.04625, -0.524583333333325 ], [ 114.04625, -0.510416666666657 ], [ 114.04375, -0.507916666666659 ], [ 114.040416666666658, -0.507916666666659 ], [ 114.037916666666661, -0.505416666666658 ], [ 114.037916666666661, -0.50125 ], [ 114.03625, -0.50125 ], [ 114.03375, -0.49875 ], [ 114.032916666666665, -0.495416666666657 ], [ 114.02875, -0.490416666666658 ], [ 114.030416666666667, -0.48875 ], [ 114.02791666666667, -0.48625 ], [ 114.025416666666672, -0.48625 ], [ 114.025416666666672, -0.485416666666659 ], [ 114.020416666666662, -0.48041666666666 ], [ 114.015416666666667, -0.479583333333323 ], [ 114.014583333333334, -0.477083333333326 ], [ 114.014583333333334, -0.469583333333325 ], [ 114.012916666666669, -0.465416666666659 ], [ 114.015416666666667, -0.460416666666656 ], [ 114.014583333333334, -0.454583333333325 ], [ 114.009583333333325, -0.45291666666666 ], [ 114.00625, -0.44875 ], [ 114.00375, -0.447916666666657 ], [ 114.00375, -0.445416666666659 ], [ 114.00625, -0.442916666666658 ], [ 114.007083333333327, -0.43875 ], [ 114.007083333333327, -0.430416666666659 ], [ 114.010416666666657, -0.42875 ], [ 114.010416666666657, -0.427916666666658 ], [ 114.010416666666657, -0.425416666666656 ], [ 114.009583333333325, -0.420416666666657 ], [ 114.007916666666659, -0.41791666666666 ], [ 114.007083333333327, -0.409583333333323 ], [ 114.00375, -0.40875 ], [ 114.00125, -0.405416666666657 ], [ 114.000416666666666, -0.40125 ], [ 113.997916666666669, -0.399583333333325 ], [ 113.997916666666669, -0.397083333333324 ], [ 113.994583333333338, -0.392916666666657 ], [ 113.990416666666661, -0.39041666666666 ], [ 113.990416666666661, -0.38875 ], [ 113.98625, -0.38375 ], [ 113.98375, -0.382916666666659 ], [ 113.977083333333326, -0.385416666666657 ], [ 113.977083333333326, -0.387916666666658 ], [ 113.974583333333328, -0.389583333333324 ], [ 113.97375, -0.392083333333325 ], [ 113.97125, -0.392916666666657 ], [ 113.967916666666667, -0.39625 ], [ 113.96541666666667, -0.397083333333324 ], [ 113.954583333333332, -0.397083333333324 ], [ 113.952083333333334, -0.392916666666657 ], [ 113.940416666666664, -0.392916666666657 ], [ 113.937916666666666, -0.39375 ], [ 113.937916666666666, -0.394583333333326 ], [ 113.937916666666666, -0.395416666666659 ], [ 113.937083333333334, -0.395416666666659 ], [ 113.937083333333334, -0.40375 ], [ 113.93125, -0.407083333333325 ], [ 113.92875, -0.407083333333325 ], [ 113.927916666666661, -0.409583333333323 ], [ 113.927916666666661, -0.41875 ], [ 113.92875, -0.41875 ], [ 113.92875, -0.427083333333325 ], [ 113.922916666666666, -0.432916666666657 ], [ 113.917083333333323, -0.432916666666657 ], [ 113.91625, -0.437083333333323 ], [ 113.91791666666667, -0.440416666666657 ], [ 113.91791666666667, -0.447083333333325 ], [ 113.922083333333333, -0.45125 ], [ 113.922083333333333, -0.45875 ], [ 113.92625, -0.462083333333325 ], [ 113.92875, -0.462916666666658 ], [ 113.92875, -0.464583333333323 ], [ 113.925416666666663, -0.467916666666657 ], [ 113.922916666666666, -0.467916666666657 ], [ 113.92125, -0.465416666666659 ], [ 113.915416666666658, -0.464583333333323 ], [ 113.914583333333326, -0.46625 ], [ 113.905416666666667, -0.464583333333323 ], [ 113.90125, -0.467916666666657 ], [ 113.899583333333325, -0.467916666666657 ], [ 113.892916666666665, -0.464583333333323 ], [ 113.88875, -0.46375 ], [ 113.882083333333327, -0.457083333333326 ], [ 113.877083333333331, -0.45291666666666 ], [ 113.872916666666669, -0.450416666666658 ], [ 113.867916666666659, -0.450416666666658 ], [ 113.86625, -0.447916666666657 ], [ 113.86375, -0.447916666666657 ], [ 113.862083333333331, -0.445416666666659 ], [ 113.86125, -0.445416666666659 ], [ 113.857083333333335, -0.445416666666659 ], [ 113.852916666666658, -0.444583333333323 ], [ 113.849583333333328, -0.445416666666659 ], [ 113.845416666666665, -0.447916666666657 ], [ 113.842916666666667, -0.450416666666658 ], [ 113.83375, -0.450416666666658 ], [ 113.832916666666662, -0.44875 ], [ 113.822916666666657, -0.44875 ], [ 113.822083333333325, -0.449583333333326 ], [ 113.822083333333325, -0.455416666666657 ], [ 113.82125, -0.45625 ], [ 113.819583333333327, -0.45625 ], [ 113.81875, -0.459583333333324 ], [ 113.817916666666662, -0.459583333333324 ], [ 113.815416666666664, -0.462083333333325 ], [ 113.810416666666669, -0.462916666666658 ], [ 113.805416666666659, -0.462916666666658 ], [ 113.802083333333329, -0.467916666666657 ], [ 113.797916666666666, -0.464583333333323 ], [ 113.792083333333323, -0.46375 ], [ 113.78875, -0.462083333333325 ], [ 113.782916666666665, -0.467916666666657 ], [ 113.77875, -0.467916666666657 ], [ 113.77625, -0.470416666666658 ], [ 113.772083333333327, -0.472083333333323 ], [ 113.76958333333333, -0.474583333333324 ], [ 113.76625, -0.474583333333324 ], [ 113.762083333333337, -0.47875 ], [ 113.75875, -0.47875 ], [ 113.757916666666659, -0.477083333333326 ], [ 113.752916666666664, -0.47625 ], [ 113.750416666666666, -0.472916666666659 ], [ 113.750416666666666, -0.469583333333325 ], [ 113.74625, -0.465416666666659 ], [ 113.745416666666671, -0.459583333333324 ], [ 113.742916666666659, -0.45625 ], [ 113.742916666666659, -0.45125 ], [ 113.740416666666661, -0.450416666666658 ], [ 113.73625, -0.445416666666659 ], [ 113.73625, -0.442916666666658 ], [ 113.732916666666668, -0.439583333333324 ], [ 113.732916666666668, -0.437916666666659 ], [ 113.73125, -0.435416666666658 ], [ 113.73125, -0.429583333333326 ], [ 113.73041666666667, -0.42625 ], [ 113.727916666666658, -0.42375 ], [ 113.727916666666658, -0.41625 ], [ 113.727083333333326, -0.409583333333323 ], [ 113.72875, -0.407916666666658 ], [ 113.727916666666658, -0.407916666666658 ], [ 113.719583333333333, -0.407916666666658 ], [ 113.717916666666667, -0.404583333333324 ], [ 113.71541666666667, -0.404583333333324 ], [ 113.71041666666666, -0.400416666666658 ], [ 113.71041666666666, -0.397916666666656 ], [ 113.717916666666667, -0.39125 ], [ 113.71875, -0.387083333333326 ], [ 113.71625, -0.38625 ], [ 113.707916666666662, -0.377916666666657 ], [ 113.707916666666662, -0.377083333333324 ], [ 113.702916666666667, -0.37875 ], [ 113.699583333333337, -0.382083333333323 ], [ 113.694583333333327, -0.382916666666659 ], [ 113.694583333333327, -0.380416666666658 ], [ 113.69125, -0.380416666666658 ], [ 113.68875, -0.37875 ], [ 113.687083333333334, -0.374583333333323 ], [ 113.682916666666671, -0.372916666666658 ], [ 113.682083333333338, -0.369583333333324 ], [ 113.679583333333326, -0.367083333333326 ], [ 113.675416666666663, -0.36625 ], [ 113.67375, -0.367916666666659 ], [ 113.67375, -0.367083333333326 ], [ 113.66791666666667, -0.36375 ], [ 113.66375, -0.36375 ], [ 113.657083333333333, -0.365416666666658 ] ] ] ] } }
]
}
